{
  "type": "FeatureCollection",
  "features": [
    {
      "type": "Feature",
      "id": "BLDG-001",
      "properties": {
        "source_type": "agent_generated_design",
        "confidence": "medium",
        "geometry_role": "design_proposal",
        "boundary_basis": "provisional_boundary",
        "official_basis": false,
        "recalculation_status": "pending_official_boundary",
        "disclaimer_zh": "概念建议图层。不是官方红线、法定控制、现状测绘或工程结论；官方边界与权属资料到位后必须整体重算。",
        "disclaimer_en": "Concept-suggestion layer. Not an official redline, statutory control, surveyed existing condition or engineering conclusion; recalculate in full once official boundary and ownership data are released.",
        "layer": "BUILDING_FOOTPRINT",
        "building_type": "ai_r_and_d",
        "name_zh": "众智园主研发体",
        "name_en": "Zhongzhi main R&D block",
        "unit_role": "schematic_key_volume_not_survey",
        "design_note_zh": "加速区主研发单元，首层向公共廊道开放，屋面预留传感与散热检修位。",
        "design_note_en": "Main R&D unit of the acceleration area; its ground floor opens to the public corridor and the roof reserves sensor and cooling maintenance space.",
        "zone_id": "Z1",
        "area_sqm_declared": 18495.527,
        "id": "BLDG-001"
      },
      "geometry": {
        "type": "Polygon",
        "coordinates": [
          [
            [
              116.3504,
              40.023
            ],
            [
              116.3514,
              40.023
            ],
            [
              116.3518,
              40.023248
            ],
            [
              116.3518,
              40.023952
            ],
            [
              116.3514,
              40.0242
            ],
            [
              116.3504,
              40.0242
            ],
            [
              116.35,
              40.023952
            ],
            [
              116.35,
              40.023248
            ],
            [
              116.3504,
              40.023
            ]
          ]
        ]
      }
    },
    {
      "type": "Feature",
      "id": "BLDG-002",
      "properties": {
        "source_type": "agent_generated_design",
        "confidence": "medium",
        "geometry_role": "design_proposal",
        "boundary_basis": "provisional_boundary",
        "official_basis": false,
        "recalculation_status": "pending_official_boundary",
        "disclaimer_zh": "概念建议图层。不是官方红线、法定控制、现状测绘或工程结论；官方边界与权属资料到位后必须整体重算。",
        "disclaimer_en": "Concept-suggestion layer. Not an official redline, statutory control, surveyed existing condition or engineering conclusion; recalculate in full once official boundary and ownership data are released.",
        "layer": "BUILDING_FOOTPRINT",
        "building_type": "lab",
        "name_zh": "众智园开放实验楼",
        "name_en": "Zhongzhi open laboratory",
        "unit_role": "schematic_key_volume_not_survey",
        "design_note_zh": "共享实验设备，向中小团队分时开放，设备清单与排期公开。",
        "design_note_en": "Shared laboratory equipment time-shared with small teams; the equipment list and schedule are published.",
        "zone_id": "Z1",
        "area_sqm_declared": 18495.52,
        "id": "BLDG-002"
      },
      "geometry": {
        "type": "Polygon",
        "coordinates": [
          [
            [
              116.3528,
              40.023
            ],
            [
              116.3538,
              40.023
            ],
            [
              116.3542,
              40.023248
            ],
            [
              116.3542,
              40.023952
            ],
            [
              116.3538,
              40.0242
            ],
            [
              116.3528,
              40.0242
            ],
            [
              116.3524,
              40.023952
            ],
            [
              116.3524,
              40.023248
            ],
            [
              116.3528,
              40.023
            ]
          ]
        ]
      }
    },
    {
      "type": "Feature",
      "id": "BLDG-003",
      "properties": {
        "source_type": "agent_generated_design",
        "confidence": "medium",
        "geometry_role": "design_proposal",
        "boundary_basis": "provisional_boundary",
        "official_basis": false,
        "recalculation_status": "pending_official_boundary",
        "disclaimer_zh": "概念建议图层。不是官方红线、法定控制、现状测绘或工程结论；官方边界与权属资料到位后必须整体重算。",
        "disclaimer_en": "Concept-suggestion layer. Not an official redline, statutory control, surveyed existing condition or engineering conclusion; recalculate in full once official boundary and ownership data are released.",
        "layer": "BUILDING_FOOTPRINT",
        "building_type": "incubator",
        "name_zh": "众智园加速器",
        "name_en": "Zhongzhi accelerator",
        "unit_role": "schematic_key_volume_not_survey",
        "design_note_zh": "孵化与加速空间，配置可拆卸隔断以适应团队规模变化。",
        "design_note_en": "Incubation and acceleration space with demountable partitions that follow changes in team size.",
        "zone_id": "Z1",
        "area_sqm_declared": 10009.605,
        "id": "BLDG-003"
      },
      "geometry": {
        "type": "Polygon",
        "coordinates": [
          [
            [
              116.3504,
              40.02
            ],
            [
              116.351,
              40.02
            ],
            [
              116.3514,
              40.020248
            ],
            [
              116.3514,
              40.020652
            ],
            [
              116.351,
              40.0209
            ],
            [
              116.3504,
              40.0209
            ],
            [
              116.35,
              40.020652
            ],
            [
              116.35,
              40.020248
            ],
            [
              116.3504,
              40.02
            ]
          ]
        ]
      }
    },
    {
      "type": "Feature",
      "id": "BLDG-004",
      "properties": {
        "source_type": "agent_generated_design",
        "confidence": "medium",
        "geometry_role": "design_proposal",
        "boundary_basis": "provisional_boundary",
        "official_basis": false,
        "recalculation_status": "pending_official_boundary",
        "disclaimer_zh": "概念建议图层。不是官方红线、法定控制、现状测绘或工程结论；官方边界与权属资料到位后必须整体重算。",
        "disclaimer_en": "Concept-suggestion layer. Not an official redline, statutory control, surveyed existing condition or engineering conclusion; recalculate in full once official boundary and ownership data are released.",
        "layer": "BUILDING_FOOTPRINT",
        "building_type": "mixed_use",
        "name_zh": "众智园混合服务体",
        "name_en": "Zhongzhi mixed-service block",
        "unit_role": "schematic_key_volume_not_survey",
        "design_note_zh": "研发、服务与展示混合，承担对外接待与成果说明。",
        "design_note_en": "Mixed research, service and display volume handling external reception and outcome briefing.",
        "zone_id": "Z1",
        "area_sqm_declared": 10009.617,
        "id": "BLDG-004"
      },
      "geometry": {
        "type": "Polygon",
        "coordinates": [
          [
            [
              116.3528,
              40.02
            ],
            [
              116.3534,
              40.02
            ],
            [
              116.3538,
              40.020248
            ],
            [
              116.3538,
              40.020652
            ],
            [
              116.3534,
              40.0209
            ],
            [
              116.3528,
              40.0209
            ],
            [
              116.3524,
              40.020652
            ],
            [
              116.3524,
              40.020248
            ],
            [
              116.3528,
              40.02
            ]
          ]
        ]
      }
    },
    {
      "type": "Feature",
      "id": "BLDG-005",
      "properties": {
        "source_type": "agent_generated_design",
        "confidence": "medium",
        "geometry_role": "design_proposal",
        "boundary_basis": "provisional_boundary",
        "official_basis": false,
        "recalculation_status": "pending_official_boundary",
        "disclaimer_zh": "概念建议图层。不是官方红线、法定控制、现状测绘或工程结论；官方边界与权属资料到位后必须整体重算。",
        "disclaimer_en": "Concept-suggestion layer. Not an official redline, statutory control, surveyed existing condition or engineering conclusion; recalculate in full once official boundary and ownership data are released.",
        "layer": "BUILDING_FOOTPRINT",
        "building_type": "mobility_hub",
        "name_zh": "众智园北接驳站",
        "name_en": "Zhongzhi north mobility hub",
        "unit_role": "schematic_key_volume_not_survey",
        "design_note_zh": "北门户接驳设施，衔接慢行与公共交通，全程无高差。",
        "design_note_en": "Northern gateway interchange linking slow mobility and public transport with a step-free route throughout.",
        "zone_id": "Z1",
        "area_sqm_declared": 4401.363,
        "id": "BLDG-005"
      },
      "geometry": {
        "type": "Polygon",
        "coordinates": [
          [
            [
              116.34294738,
              40.02397652
            ],
            [
              116.34328138,
              40.02397651
            ],
            [
              116.34361438,
              40.02417651
            ],
            [
              116.34361438,
              40.02437651
            ],
            [
              116.34328138,
              40.02457651
            ],
            [
              116.34294738,
              40.02457652
            ],
            [
              116.34261438,
              40.02437652
            ],
            [
              116.34261438,
              40.02417652
            ],
            [
              116.34294738,
              40.02397652
            ]
          ]
        ]
      }
    },
    {
      "type": "Feature",
      "id": "BLDG-006",
      "properties": {
        "source_type": "agent_generated_design",
        "confidence": "medium",
        "geometry_role": "design_proposal",
        "boundary_basis": "provisional_boundary",
        "official_basis": false,
        "recalculation_status": "pending_official_boundary",
        "disclaimer_zh": "概念建议图层。不是官方红线、法定控制、现状测绘或工程结论；官方边界与权属资料到位后必须整体重算。",
        "disclaimer_en": "Concept-suggestion layer. Not an official redline, statutory control, surveyed existing condition or engineering conclusion; recalculate in full once official boundary and ownership data are released.",
        "layer": "BUILDING_FOOTPRINT",
        "building_type": "talent_apartment",
        "name_zh": "众智园人才公寓",
        "name_en": "Zhongzhi talent apartments",
        "unit_role": "schematic_key_volume_not_survey",
        "design_note_zh": "面向青年研究者的租赁住房，底层为共享厨房与自习空间。",
        "design_note_en": "Rental housing for early-career researchers with shared kitchens and study space at grade.",
        "zone_id": "Z1",
        "area_sqm_declared": 18495.529,
        "id": "BLDG-006"
      },
      "geometry": {
        "type": "Polygon",
        "coordinates": [
          [
            [
              116.3429028,
              40.01947396
            ],
            [
              116.3439028,
              40.01947396
            ],
            [
              116.3443028,
              40.01972195
            ],
            [
              116.34430281,
              40.02042595
            ],
            [
              116.34390282,
              40.02067396
            ],
            [
              116.34290282,
              40.02067396
            ],
            [
              116.34250281,
              40.02042597
            ],
            [
              116.3425028,
              40.01972197
            ],
            [
              116.3429028,
              40.01947396
            ]
          ]
        ]
      }
    },
    {
      "type": "Feature",
      "id": "BLDG-007",
      "properties": {
        "source_type": "agent_generated_design",
        "confidence": "medium",
        "geometry_role": "design_proposal",
        "boundary_basis": "provisional_boundary",
        "official_basis": false,
        "recalculation_status": "pending_official_boundary",
        "disclaimer_zh": "概念建议图层。不是官方红线、法定控制、现状测绘或工程结论；官方边界与权属资料到位后必须整体重算。",
        "disclaimer_en": "Concept-suggestion layer. Not an official redline, statutory control, surveyed existing condition or engineering conclusion; recalculate in full once official boundary and ownership data are released.",
        "layer": "BUILDING_FOOTPRINT",
        "building_type": "community_service",
        "name_zh": "众智园社区服务站",
        "name_en": "Zhongzhi community service point",
        "unit_role": "schematic_key_volume_not_survey",
        "design_note_zh": "日常服务与线下人工窗口共设，营业时间与AI终端一致。",
        "design_note_en": "Everyday services co-located with a staffed offline counter whose opening hours match the AI terminals.",
        "zone_id": "Z1",
        "area_sqm_declared": 10009.611,
        "id": "BLDG-007"
      },
      "geometry": {
        "type": "Polygon",
        "coordinates": [
          [
            [
              116.34232186,
              40.00899072
            ],
            [
              116.34292186,
              40.00899072
            ],
            [
              116.34332186,
              40.00923871
            ],
            [
              116.34332186,
              40.00964271
            ],
            [
              116.34292186,
              40.00989072
            ],
            [
              116.34232186,
              40.00989072
            ],
            [
              116.34192186,
              40.00964272
            ],
            [
              116.34192186,
              40.00923872
            ],
            [
              116.34232186,
              40.00899072
            ]
          ]
        ]
      }
    },
    {
      "type": "Feature",
      "id": "BLDG-008",
      "properties": {
        "source_type": "agent_generated_design",
        "confidence": "medium",
        "geometry_role": "design_proposal",
        "boundary_basis": "provisional_boundary",
        "official_basis": false,
        "recalculation_status": "pending_official_boundary",
        "disclaimer_zh": "概念建议图层。不是官方红线、法定控制、现状测绘或工程结论；官方边界与权属资料到位后必须整体重算。",
        "disclaimer_en": "Concept-suggestion layer. Not an official redline, statutory control, surveyed existing condition or engineering conclusion; recalculate in full once official boundary and ownership data are released.",
        "layer": "BUILDING_FOOTPRINT",
        "building_type": "existing_retained",
        "name_zh": "北段现状保留厂房",
        "name_en": "North retained industrial shed",
        "unit_role": "schematic_key_volume_not_survey",
        "design_note_zh": "现状建筑保留并适应性再利用，结构安全需实测后确认。",
        "design_note_en": "Existing structure retained for adaptive reuse; structural safety must be confirmed by survey.",
        "zone_id": "Z1",
        "area_sqm_declared": 10009.613,
        "id": "BLDG-008"
      },
      "geometry": {
        "type": "Polygon",
        "coordinates": [
          [
            [
              116.3436,
              40.009
            ],
            [
              116.3442,
              40.009
            ],
            [
              116.3446,
              40.009248
            ],
            [
              116.3446,
              40.009652
            ],
            [
              116.3442,
              40.0099
            ],
            [
              116.3436,
              40.0099
            ],
            [
              116.3432,
              40.009652
            ],
            [
              116.3432,
              40.009248
            ],
            [
              116.3436,
              40.009
            ]
          ]
        ]
      }
    },
    {
      "type": "Feature",
      "id": "BLDG-009",
      "properties": {
        "source_type": "agent_generated_design",
        "confidence": "medium",
        "geometry_role": "design_proposal",
        "boundary_basis": "provisional_boundary",
        "official_basis": false,
        "recalculation_status": "pending_official_boundary",
        "disclaimer_zh": "概念建议图层。不是官方红线、法定控制、现状测绘或工程结论；官方边界与权属资料到位后必须整体重算。",
        "disclaimer_en": "Concept-suggestion layer. Not an official redline, statutory control, surveyed existing condition or engineering conclusion; recalculate in full once official boundary and ownership data are released.",
        "layer": "BUILDING_FOOTPRINT",
        "building_type": "education",
        "name_zh": "北段联合培养中心",
        "name_en": "North joint-training centre",
        "unit_role": "schematic_key_volume_not_survey",
        "design_note_zh": "高校与企业联合培养基地，教室与实验位按学期共享。",
        "design_note_en": "Joint university-enterprise training base whose classrooms and lab benches are shared by semester.",
        "zone_id": "TA",
        "area_sqm_declared": 18495.531,
        "id": "BLDG-009"
      },
      "geometry": {
        "type": "Polygon",
        "coordinates": [
          [
            [
              116.342,
              40.001
            ],
            [
              116.343,
              40.001
            ],
            [
              116.3434,
              40.001248
            ],
            [
              116.3434,
              40.001952
            ],
            [
              116.343,
              40.0022
            ],
            [
              116.342,
              40.0022
            ],
            [
              116.3416,
              40.001952
            ],
            [
              116.3416,
              40.001248
            ],
            [
              116.342,
              40.001
            ]
          ]
        ]
      }
    },
    {
      "type": "Feature",
      "id": "BLDG-010",
      "properties": {
        "source_type": "agent_generated_design",
        "confidence": "medium",
        "geometry_role": "design_proposal",
        "boundary_basis": "provisional_boundary",
        "official_basis": false,
        "recalculation_status": "pending_official_boundary",
        "disclaimer_zh": "概念建议图层。不是官方红线、法定控制、现状测绘或工程结论；官方边界与权属资料到位后必须整体重算。",
        "disclaimer_en": "Concept-suggestion layer. Not an official redline, statutory control, surveyed existing condition or engineering conclusion; recalculate in full once official boundary and ownership data are released.",
        "layer": "BUILDING_FOOTPRINT",
        "building_type": "ai_r_and_d",
        "name_zh": "北段转化研发体",
        "name_en": "North translation R&D block",
        "unit_role": "schematic_key_volume_not_survey",
        "design_note_zh": "承接高校成果的转化研发单元，与东侧场景走廊直接相连。",
        "design_note_en": "Translation R&D unit absorbing university outputs, directly linked to the eastern scenario corridor.",
        "zone_id": "TA",
        "area_sqm_declared": 18495.523,
        "id": "BLDG-010"
      },
      "geometry": {
        "type": "Polygon",
        "coordinates": [
          [
            [
              116.3504,
              39.9955
            ],
            [
              116.3514,
              39.9955
            ],
            [
              116.3518,
              39.995748
            ],
            [
              116.3518,
              39.996452
            ],
            [
              116.3514,
              39.9967
            ],
            [
              116.3504,
              39.9967
            ],
            [
              116.35,
              39.996452
            ],
            [
              116.35,
              39.995748
            ],
            [
              116.3504,
              39.9955
            ]
          ]
        ]
      }
    },
    {
      "type": "Feature",
      "id": "BLDG-011",
      "properties": {
        "source_type": "agent_generated_design",
        "confidence": "medium",
        "geometry_role": "design_proposal",
        "boundary_basis": "provisional_boundary",
        "official_basis": false,
        "recalculation_status": "pending_official_boundary",
        "disclaimer_zh": "概念建议图层。不是官方红线、法定控制、现状测绘或工程结论；官方边界与权属资料到位后必须整体重算。",
        "disclaimer_en": "Concept-suggestion layer. Not an official redline, statutory control, surveyed existing condition or engineering conclusion; recalculate in full once official boundary and ownership data are released.",
        "layer": "BUILDING_FOOTPRINT",
        "building_type": "cultural",
        "name_zh": "北段公众理解中心",
        "name_en": "North public-understanding centre",
        "unit_role": "schematic_key_volume_not_survey",
        "design_note_zh": "公园旁的AI公众解释空间，展陈内容随模型版本同步更新。",
        "design_note_en": "Park-side space explaining AI to the public; its displays update with each model version.",
        "zone_id": "TA",
        "area_sqm_declared": 4401.363,
        "id": "BLDG-011"
      },
      "geometry": {
        "type": "Polygon",
        "coordinates": [
          [
            [
              116.349533,
              40.003
            ],
            [
              116.349867,
              40.003
            ],
            [
              116.3502,
              40.0032
            ],
            [
              116.3502,
              40.0034
            ],
            [
              116.349867,
              40.0036
            ],
            [
              116.349533,
              40.0036
            ],
            [
              116.3492,
              40.0034
            ],
            [
              116.3492,
              40.0032
            ],
            [
              116.349533,
              40.003
            ]
          ]
        ]
      }
    },
    {
      "type": "Feature",
      "id": "BLDG-012",
      "properties": {
        "source_type": "agent_generated_design",
        "confidence": "medium",
        "geometry_role": "design_proposal",
        "boundary_basis": "provisional_boundary",
        "official_basis": false,
        "recalculation_status": "pending_official_boundary",
        "disclaimer_zh": "概念建议图层。不是官方红线、法定控制、现状测绘或工程结论；官方边界与权属资料到位后必须整体重算。",
        "disclaimer_en": "Concept-suggestion layer. Not an official redline, statutory control, surveyed existing condition or engineering conclusion; recalculate in full once official boundary and ownership data are released.",
        "layer": "BUILDING_FOOTPRINT",
        "building_type": "residential",
        "name_zh": "原点社区既有住宅组团A",
        "name_en": "Origin Community existing housing A",
        "unit_role": "schematic_key_volume_not_survey",
        "design_note_zh": "现状居住组团，采用渐进更新，加装电梯与无障碍入户优先。",
        "design_note_en": "Existing housing cluster under incremental renewal, prioritising lift retrofit and step-free entry.",
        "zone_id": "Z2",
        "area_sqm_declared": 10009.609,
        "id": "BLDG-012"
      },
      "geometry": {
        "type": "Polygon",
        "coordinates": [
          [
            [
              116.342,
              39.99
            ],
            [
              116.3426,
              39.99
            ],
            [
              116.343,
              39.990248
            ],
            [
              116.343,
              39.990652
            ],
            [
              116.3426,
              39.9909
            ],
            [
              116.342,
              39.9909
            ],
            [
              116.3416,
              39.990652
            ],
            [
              116.3416,
              39.990248
            ],
            [
              116.342,
              39.99
            ]
          ]
        ]
      }
    },
    {
      "type": "Feature",
      "id": "BLDG-013",
      "properties": {
        "source_type": "agent_generated_design",
        "confidence": "medium",
        "geometry_role": "design_proposal",
        "boundary_basis": "provisional_boundary",
        "official_basis": false,
        "recalculation_status": "pending_official_boundary",
        "disclaimer_zh": "概念建议图层。不是官方红线、法定控制、现状测绘或工程结论；官方边界与权属资料到位后必须整体重算。",
        "disclaimer_en": "Concept-suggestion layer. Not an official redline, statutory control, surveyed existing condition or engineering conclusion; recalculate in full once official boundary and ownership data are released.",
        "layer": "BUILDING_FOOTPRINT",
        "building_type": "residential",
        "name_zh": "原点社区既有住宅组团B",
        "name_en": "Origin Community existing housing B",
        "unit_role": "schematic_key_volume_not_survey",
        "design_note_zh": "现状居住组团，保留原有邻里结构与树木。",
        "design_note_en": "Existing housing cluster retaining its neighbourhood structure and mature trees.",
        "zone_id": "Z2",
        "area_sqm_declared": 10009.609,
        "id": "BLDG-013"
      },
      "geometry": {
        "type": "Polygon",
        "coordinates": [
          [
            [
              116.3438,
              39.99
            ],
            [
              116.3444,
              39.99
            ],
            [
              116.3448,
              39.990248
            ],
            [
              116.3448,
              39.990652
            ],
            [
              116.3444,
              39.9909
            ],
            [
              116.3438,
              39.9909
            ],
            [
              116.3434,
              39.990652
            ],
            [
              116.3434,
              39.990248
            ],
            [
              116.3438,
              39.99
            ]
          ]
        ]
      }
    },
    {
      "type": "Feature",
      "id": "BLDG-014",
      "properties": {
        "source_type": "agent_generated_design",
        "confidence": "medium",
        "geometry_role": "design_proposal",
        "boundary_basis": "provisional_boundary",
        "official_basis": false,
        "recalculation_status": "pending_official_boundary",
        "disclaimer_zh": "概念建议图层。不是官方红线、法定控制、现状测绘或工程结论；官方边界与权属资料到位后必须整体重算。",
        "disclaimer_en": "Concept-suggestion layer. Not an official redline, statutory control, surveyed existing condition or engineering conclusion; recalculate in full once official boundary and ownership data are released.",
        "layer": "BUILDING_FOOTPRINT",
        "building_type": "community_service",
        "name_zh": "原点社区共享客厅",
        "name_en": "Origin Community shared living room",
        "unit_role": "schematic_key_volume_not_survey",
        "design_note_zh": "社区共享客厅与人工服务台，是申诉受理的线下入口。",
        "design_note_en": "Shared community living room with a staffed help desk; the offline intake point for appeals.",
        "zone_id": "Z2",
        "area_sqm_declared": 10009.609,
        "id": "BLDG-014"
      },
      "geometry": {
        "type": "Polygon",
        "coordinates": [
          [
            [
              116.3504,
              39.99
            ],
            [
              116.351,
              39.99
            ],
            [
              116.3514,
              39.990248
            ],
            [
              116.3514,
              39.990652
            ],
            [
              116.351,
              39.9909
            ],
            [
              116.3504,
              39.9909
            ],
            [
              116.35,
              39.990652
            ],
            [
              116.35,
              39.990248
            ],
            [
              116.3504,
              39.99
            ]
          ]
        ]
      }
    },
    {
      "type": "Feature",
      "id": "BLDG-015",
      "properties": {
        "source_type": "agent_generated_design",
        "confidence": "medium",
        "geometry_role": "design_proposal",
        "boundary_basis": "provisional_boundary",
        "official_basis": false,
        "recalculation_status": "pending_official_boundary",
        "disclaimer_zh": "概念建议图层。不是官方红线、法定控制、现状测绘或工程结论；官方边界与权属资料到位后必须整体重算。",
        "disclaimer_en": "Concept-suggestion layer. Not an official redline, statutory control, surveyed existing condition or engineering conclusion; recalculate in full once official boundary and ownership data are released.",
        "layer": "BUILDING_FOOTPRINT",
        "building_type": "retail",
        "name_zh": "原点社区街道商业",
        "name_en": "Origin Community street retail",
        "unit_role": "schematic_key_volume_not_survey",
        "design_note_zh": "小尺度沿街商业，保持连续界面与可停留檐下空间。",
        "design_note_en": "Fine-grained street retail keeping a continuous frontage and a sheltered pause space.",
        "zone_id": "Z2",
        "area_sqm_declared": 4401.367,
        "id": "BLDG-015"
      },
      "geometry": {
        "type": "Polygon",
        "coordinates": [
          [
            [
              116.350133,
              39.985
            ],
            [
              116.350467,
              39.985
            ],
            [
              116.3508,
              39.9852
            ],
            [
              116.3508,
              39.9854
            ],
            [
              116.350467,
              39.9856
            ],
            [
              116.350133,
              39.9856
            ],
            [
              116.3498,
              39.9854
            ],
            [
              116.3498,
              39.9852
            ],
            [
              116.350133,
              39.985
            ]
          ]
        ]
      }
    },
    {
      "type": "Feature",
      "id": "BLDG-016",
      "properties": {
        "source_type": "agent_generated_design",
        "confidence": "medium",
        "geometry_role": "design_proposal",
        "boundary_basis": "provisional_boundary",
        "official_basis": false,
        "recalculation_status": "pending_official_boundary",
        "disclaimer_zh": "概念建议图层。不是官方红线、法定控制、现状测绘或工程结论；官方边界与权属资料到位后必须整体重算。",
        "disclaimer_en": "Concept-suggestion layer. Not an official redline, statutory control, surveyed existing condition or engineering conclusion; recalculate in full once official boundary and ownership data are released.",
        "layer": "BUILDING_FOOTPRINT",
        "building_type": "cultural",
        "name_zh": "原点社区文化馆",
        "name_en": "Origin Community culture house",
        "unit_role": "schematic_key_volume_not_survey",
        "design_note_zh": "社区文化与展示，兼作公众复盘会场地。",
        "design_note_en": "Community culture and display, doubling as the venue for public review sessions.",
        "zone_id": "Z2",
        "area_sqm_declared": 10009.609,
        "id": "BLDG-016"
      },
      "geometry": {
        "type": "Polygon",
        "coordinates": [
          [
            [
              116.3524,
              39.9848
            ],
            [
              116.353,
              39.9848
            ],
            [
              116.3534,
              39.985048
            ],
            [
              116.3534,
              39.985452
            ],
            [
              116.353,
              39.9857
            ],
            [
              116.3524,
              39.9857
            ],
            [
              116.352,
              39.985452
            ],
            [
              116.352,
              39.985048
            ],
            [
              116.3524,
              39.9848
            ]
          ]
        ]
      }
    },
    {
      "type": "Feature",
      "id": "BLDG-017",
      "properties": {
        "source_type": "agent_generated_design",
        "confidence": "medium",
        "geometry_role": "design_proposal",
        "boundary_basis": "provisional_boundary",
        "official_basis": false,
        "recalculation_status": "pending_official_boundary",
        "disclaimer_zh": "概念建议图层。不是官方红线、法定控制、现状测绘或工程结论；官方边界与权属资料到位后必须整体重算。",
        "disclaimer_en": "Concept-suggestion layer. Not an official redline, statutory control, surveyed existing condition or engineering conclusion; recalculate in full once official boundary and ownership data are released.",
        "layer": "BUILDING_FOOTPRINT",
        "building_type": "mobility_hub",
        "name_zh": "原点社区接驳点",
        "name_en": "Origin Community interchange",
        "unit_role": "schematic_key_volume_not_survey",
        "design_note_zh": "东侧接驳点，衔接小月河翼与社区生活环。",
        "design_note_en": "Eastern interchange connecting the Xiaoyuehe wing to the community everyday loop.",
        "zone_id": "Z2",
        "area_sqm_declared": 4401.344,
        "id": "BLDG-017"
      },
      "geometry": {
        "type": "Polygon",
        "coordinates": [
          [
            [
              116.3526711,
              39.98893078
            ],
            [
              116.3530051,
              39.98893078
            ],
            [
              116.35333809,
              39.98913079
            ],
            [
              116.35333809,
              39.98933079
            ],
            [
              116.35300509,
              39.98953078
            ],
            [
              116.35267109,
              39.98953078
            ],
            [
              116.35233809,
              39.98933077
            ],
            [
              116.3523381,
              39.98913077
            ],
            [
              116.3526711,
              39.98893078
            ]
          ]
        ]
      }
    },
    {
      "type": "Feature",
      "id": "BLDG-018",
      "properties": {
        "source_type": "agent_generated_design",
        "confidence": "medium",
        "geometry_role": "design_proposal",
        "boundary_basis": "provisional_boundary",
        "official_basis": false,
        "recalculation_status": "pending_official_boundary",
        "disclaimer_zh": "概念建议图层。不是官方红线、法定控制、现状测绘或工程结论；官方边界与权属资料到位后必须整体重算。",
        "disclaimer_en": "Concept-suggestion layer. Not an official redline, statutory control, surveyed existing condition or engineering conclusion; recalculate in full once official boundary and ownership data are released.",
        "layer": "BUILDING_FOOTPRINT",
        "building_type": "office",
        "name_zh": "大钟寺产业办公体A",
        "name_en": "Dazhongsi industry office A",
        "unit_role": "schematic_key_volume_not_survey",
        "design_note_zh": "产业办公主体，底层设开放的算力服务受理厅。",
        "design_note_en": "Principal industrial office volume with an open compute-service intake hall at grade.",
        "zone_id": "TB",
        "area_sqm_declared": 18495.523,
        "id": "BLDG-018"
      },
      "geometry": {
        "type": "Polygon",
        "coordinates": [
          [
            [
              116.3502,
              39.952
            ],
            [
              116.3512,
              39.952
            ],
            [
              116.3516,
              39.952248
            ],
            [
              116.3516,
              39.952952
            ],
            [
              116.3512,
              39.9532
            ],
            [
              116.3502,
              39.9532
            ],
            [
              116.3498,
              39.952952
            ],
            [
              116.3498,
              39.952248
            ],
            [
              116.3502,
              39.952
            ]
          ]
        ]
      }
    },
    {
      "type": "Feature",
      "id": "BLDG-019",
      "properties": {
        "source_type": "agent_generated_design",
        "confidence": "medium",
        "geometry_role": "design_proposal",
        "boundary_basis": "provisional_boundary",
        "official_basis": false,
        "recalculation_status": "pending_official_boundary",
        "disclaimer_zh": "概念建议图层。不是官方红线、法定控制、现状测绘或工程结论；官方边界与权属资料到位后必须整体重算。",
        "disclaimer_en": "Concept-suggestion layer. Not an official redline, statutory control, surveyed existing condition or engineering conclusion; recalculate in full once official boundary and ownership data are released.",
        "layer": "BUILDING_FOOTPRINT",
        "building_type": "office",
        "name_zh": "大钟寺产业办公体B",
        "name_en": "Dazhongsi industry office B",
        "unit_role": "schematic_key_volume_not_survey",
        "design_note_zh": "产业办公次体，可分租给中小团队。",
        "design_note_en": "Secondary industrial office volume, sub-lettable to smaller teams.",
        "zone_id": "TB",
        "area_sqm_declared": 18495.527,
        "id": "BLDG-019"
      },
      "geometry": {
        "type": "Polygon",
        "coordinates": [
          [
            [
              116.3526,
              39.952
            ],
            [
              116.3536,
              39.952
            ],
            [
              116.354,
              39.952248
            ],
            [
              116.354,
              39.952952
            ],
            [
              116.3536,
              39.9532
            ],
            [
              116.3526,
              39.9532
            ],
            [
              116.3522,
              39.952952
            ],
            [
              116.3522,
              39.952248
            ],
            [
              116.3526,
              39.952
            ]
          ]
        ]
      }
    },
    {
      "type": "Feature",
      "id": "BLDG-020",
      "properties": {
        "source_type": "agent_generated_design",
        "confidence": "medium",
        "geometry_role": "design_proposal",
        "boundary_basis": "provisional_boundary",
        "official_basis": false,
        "recalculation_status": "pending_official_boundary",
        "disclaimer_zh": "概念建议图层。不是官方红线、法定控制、现状测绘或工程结论；官方边界与权属资料到位后必须整体重算。",
        "disclaimer_en": "Concept-suggestion layer. Not an official redline, statutory control, surveyed existing condition or engineering conclusion; recalculate in full once official boundary and ownership data are released.",
        "layer": "BUILDING_FOOTPRINT",
        "building_type": "ai_r_and_d",
        "name_zh": "大钟寺产业验证中心",
        "name_en": "Dazhongsi industrial validation centre",
        "unit_role": "schematic_key_volume_not_survey",
        "design_note_zh": "面向产业验证场景的集中验证设施，验证日志按季公开摘要。",
        "design_note_en": "Concentrated facility for industrial-validation scenarios; validation logs are summarised publicly each quarter.",
        "zone_id": "Z3",
        "area_sqm_declared": 18495.531,
        "id": "BLDG-020"
      },
      "geometry": {
        "type": "Polygon",
        "coordinates": [
          [
            [
              116.3502,
              39.948
            ],
            [
              116.3512,
              39.948
            ],
            [
              116.3516,
              39.948248
            ],
            [
              116.3516,
              39.948952
            ],
            [
              116.3512,
              39.9492
            ],
            [
              116.3502,
              39.9492
            ],
            [
              116.3498,
              39.948952
            ],
            [
              116.3498,
              39.948248
            ],
            [
              116.3502,
              39.948
            ]
          ]
        ]
      }
    },
    {
      "type": "Feature",
      "id": "BLDG-021",
      "properties": {
        "source_type": "agent_generated_design",
        "confidence": "medium",
        "geometry_role": "design_proposal",
        "boundary_basis": "provisional_boundary",
        "official_basis": false,
        "recalculation_status": "pending_official_boundary",
        "disclaimer_zh": "概念建议图层。不是官方红线、法定控制、现状测绘或工程结论；官方边界与权属资料到位后必须整体重算。",
        "disclaimer_en": "Concept-suggestion layer. Not an official redline, statutory control, surveyed existing condition or engineering conclusion; recalculate in full once official boundary and ownership data are released.",
        "layer": "BUILDING_FOOTPRINT",
        "building_type": "lab",
        "name_zh": "大钟寺共享算力实验楼",
        "name_en": "Dazhongsi shared-compute laboratory",
        "unit_role": "schematic_key_volume_not_survey",
        "design_note_zh": "共享算力与可参访机房，余热回收接入南段供暖。",
        "design_note_en": "Shared compute with a visitable machine hall; waste heat is recovered into the southern heating loop.",
        "zone_id": "Z3",
        "area_sqm_declared": 10009.609,
        "id": "BLDG-021"
      },
      "geometry": {
        "type": "Polygon",
        "coordinates": [
          [
            [
              116.3526,
              39.948
            ],
            [
              116.3532,
              39.948
            ],
            [
              116.3536,
              39.948248
            ],
            [
              116.3536,
              39.948652
            ],
            [
              116.3532,
              39.9489
            ],
            [
              116.3526,
              39.9489
            ],
            [
              116.3522,
              39.948652
            ],
            [
              116.3522,
              39.948248
            ],
            [
              116.3526,
              39.948
            ]
          ]
        ]
      }
    },
    {
      "type": "Feature",
      "id": "BLDG-022",
      "properties": {
        "source_type": "agent_generated_design",
        "confidence": "medium",
        "geometry_role": "design_proposal",
        "boundary_basis": "provisional_boundary",
        "official_basis": false,
        "recalculation_status": "pending_official_boundary",
        "disclaimer_zh": "概念建议图层。不是官方红线、法定控制、现状测绘或工程结论；官方边界与权属资料到位后必须整体重算。",
        "disclaimer_en": "Concept-suggestion layer. Not an official redline, statutory control, surveyed existing condition or engineering conclusion; recalculate in full once official boundary and ownership data are released.",
        "layer": "BUILDING_FOOTPRINT",
        "building_type": "mobility_hub",
        "name_zh": "大钟寺南门户站",
        "name_en": "Dazhongsi south gateway station",
        "unit_role": "schematic_key_volume_not_survey",
        "design_note_zh": "南门户接驳设施，与门户广场同标高。",
        "design_note_en": "Southern gateway interchange level with the gateway plaza.",
        "zone_id": "Z3",
        "area_sqm_declared": 4401.363,
        "id": "BLDG-022"
      },
      "geometry": {
        "type": "Polygon",
        "coordinates": [
          [
            [
              116.350333,
              39.941
            ],
            [
              116.350667,
              39.941
            ],
            [
              116.351,
              39.9412
            ],
            [
              116.351,
              39.9414
            ],
            [
              116.350667,
              39.9416
            ],
            [
              116.350333,
              39.9416
            ],
            [
              116.35,
              39.9414
            ],
            [
              116.35,
              39.9412
            ],
            [
              116.350333,
              39.941
            ]
          ]
        ]
      }
    },
    {
      "type": "Feature",
      "id": "BLDG-023",
      "properties": {
        "source_type": "agent_generated_design",
        "confidence": "medium",
        "geometry_role": "design_proposal",
        "boundary_basis": "provisional_boundary",
        "official_basis": false,
        "recalculation_status": "pending_official_boundary",
        "disclaimer_zh": "概念建议图层。不是官方红线、法定控制、现状测绘或工程结论；官方边界与权属资料到位后必须整体重算。",
        "disclaimer_en": "Concept-suggestion layer. Not an official redline, statutory control, surveyed existing condition or engineering conclusion; recalculate in full once official boundary and ownership data are released.",
        "layer": "BUILDING_FOOTPRINT",
        "building_type": "community_service",
        "name_zh": "大钟寺健康服务站",
        "name_en": "Dazhongsi health service point",
        "unit_role": "schematic_key_volume_not_survey",
        "design_note_zh": "共享医疗卫生服务点，产业人群与社区居民同一入口。",
        "design_note_en": "Shared health service point using one entrance for both the industrial population and local residents.",
        "zone_id": "Z3",
        "area_sqm_declared": 10009.613,
        "id": "BLDG-023"
      },
      "geometry": {
        "type": "Polygon",
        "coordinates": [
          [
            [
              116.342,
              39.944
            ],
            [
              116.3426,
              39.944
            ],
            [
              116.343,
              39.944248
            ],
            [
              116.343,
              39.944652
            ],
            [
              116.3426,
              39.9449
            ],
            [
              116.342,
              39.9449
            ],
            [
              116.3416,
              39.944652
            ],
            [
              116.3416,
              39.944248
            ],
            [
              116.342,
              39.944
            ]
          ]
        ]
      }
    },
    {
      "type": "Feature",
      "id": "BLDG-024",
      "properties": {
        "source_type": "agent_generated_design",
        "confidence": "medium",
        "geometry_role": "design_proposal",
        "boundary_basis": "provisional_boundary",
        "official_basis": false,
        "recalculation_status": "pending_official_boundary",
        "disclaimer_zh": "概念建议图层。不是官方红线、法定控制、现状测绘或工程结论；官方边界与权属资料到位后必须整体重算。",
        "disclaimer_en": "Concept-suggestion layer. Not an official redline, statutory control, surveyed existing condition or engineering conclusion; recalculate in full once official boundary and ownership data are released.",
        "layer": "BUILDING_FOOTPRINT",
        "building_type": "existing_retained",
        "name_zh": "大钟寺现状保留仓储",
        "name_en": "Dazhongsi retained warehouse",
        "unit_role": "schematic_key_volume_not_survey",
        "design_note_zh": "现状仓储保留改造，优先用于设备暂存与布展。",
        "design_note_en": "Existing warehouse retained and converted, used first for equipment staging and exhibition build-up.",
        "zone_id": "Z3",
        "area_sqm_declared": 4401.363,
        "id": "BLDG-024"
      },
      "geometry": {
        "type": "Polygon",
        "coordinates": [
          [
            [
              116.341933,
              39.941
            ],
            [
              116.342267,
              39.941
            ],
            [
              116.3426,
              39.9412
            ],
            [
              116.3426,
              39.9414
            ],
            [
              116.342267,
              39.9416
            ],
            [
              116.341933,
              39.9416
            ],
            [
              116.3416,
              39.9414
            ],
            [
              116.3416,
              39.9412
            ],
            [
              116.341933,
              39.941
            ]
          ]
        ]
      }
    },
    {
      "type": "Feature",
      "id": "BLDG-025",
      "properties": {
        "source_type": "agent_generated_design",
        "confidence": "medium",
        "geometry_role": "design_proposal",
        "boundary_basis": "provisional_boundary",
        "official_basis": false,
        "recalculation_status": "pending_official_boundary",
        "disclaimer_zh": "概念建议图层。不是官方红线、法定控制、现状测绘或工程结论；官方边界与权属资料到位后必须整体重算。",
        "disclaimer_en": "Concept-suggestion layer. Not an official redline, statutory control, surveyed existing condition or engineering conclusion; recalculate in full once official boundary and ownership data are released.",
        "layer": "BUILDING_FOOTPRINT",
        "building_type": "incubator",
        "name_zh": "小月河翼场景孵化体",
        "name_en": "Xiaoyuehe wing scenario incubator",
        "unit_role": "schematic_key_volume_not_survey",
        "design_note_zh": "东翼场景孵化空间，直接面向滨水验证段。",
        "design_note_en": "Eastern wing scenario incubation space facing the waterfront validation reach.",
        "zone_id": "TB",
        "area_sqm_declared": 10009.609,
        "id": "BLDG-025"
      },
      "geometry": {
        "type": "Polygon",
        "coordinates": [
          [
            [
              116.3524,
              39.97
            ],
            [
              116.353,
              39.97
            ],
            [
              116.3534,
              39.970248
            ],
            [
              116.3534,
              39.970652
            ],
            [
              116.353,
              39.9709
            ],
            [
              116.3524,
              39.9709
            ],
            [
              116.352,
              39.970652
            ],
            [
              116.352,
              39.970248
            ],
            [
              116.3524,
              39.97
            ]
          ]
        ]
      }
    },
    {
      "type": "Feature",
      "id": "BLDG-026",
      "properties": {
        "source_type": "agent_generated_design",
        "confidence": "medium",
        "geometry_role": "design_proposal",
        "boundary_basis": "provisional_boundary",
        "official_basis": false,
        "recalculation_status": "pending_official_boundary",
        "disclaimer_zh": "概念建议图层。不是官方红线、法定控制、现状测绘或工程结论；官方边界与权属资料到位后必须整体重算。",
        "disclaimer_en": "Concept-suggestion layer. Not an official redline, statutory control, surveyed existing condition or engineering conclusion; recalculate in full once official boundary and ownership data are released.",
        "layer": "BUILDING_FOOTPRINT",
        "building_type": "office",
        "name_zh": "中关村翼科技服务体",
        "name_en": "Zhongguancun wing service block",
        "unit_role": "schematic_key_volume_not_survey",
        "design_note_zh": "西翼科技服务办公，承担知识产权与合规咨询。",
        "design_note_en": "Western wing technology-service office carrying intellectual-property and compliance advice.",
        "zone_id": "TB",
        "area_sqm_declared": 10009.613,
        "id": "BLDG-026"
      },
      "geometry": {
        "type": "Polygon",
        "coordinates": [
          [
            [
              116.342,
              39.97
            ],
            [
              116.3426,
              39.97
            ],
            [
              116.343,
              39.970248
            ],
            [
              116.343,
              39.970652
            ],
            [
              116.3426,
              39.9709
            ],
            [
              116.342,
              39.9709
            ],
            [
              116.3416,
              39.970652
            ],
            [
              116.3416,
              39.970248
            ],
            [
              116.342,
              39.97
            ]
          ]
        ]
      }
    }
  ],
  "schema_version": "0.1.0",
  "crs_note": "WGS84 lon/lat; areas recomputed with a documented local planar approximation (M_PER_DEG_LAT=110540, M_PER_DEG_LON=111320*cos(39.98275)).",
  "boundary_basis": "provisional_boundary",
  "official_basis": false,
  "cross_section_note_zh": "全带横断面自西向东为：西侧街区带(约341米)—西缝隙(约68米)—遗址公园主廊(约205米)—东缝隙(约85米)—东侧街区带(约495米)。",
  "cross_section_note_en": "West to east the belt section reads: western block band (~341 m), west seam (~68 m), heritage park spine (~205 m), east seam (~85 m), eastern block band (~495 m).",
  "coverage_note_zh": "仅绘制方案提出的关键体量，不是现状建筑普查，因此建筑基底率显著低于真实建成区。",
  "coverage_note_en": "Only the key volumes proposed by the scheme are drawn. This is not a survey of the existing stock, so the footprint ratio is far below that of a real built-up area."
}
