{
  "type": "FeatureCollection",
  "features": [
    {
      "type": "Feature",
      "id": "CONSTRAINT-001",
      "properties": {
        "layer": "REGULATORY_CONTROL",
        "source_type": "unknown",
        "confidence": "unknown",
        "geometry_role": "provisional_constraint",
        "constraint_type": "official_boundary_handoff",
        "status": "data_gap",
        "official_boundary": false,
        "required_before_formal_use": true,
        "name_zh": "正式总体边界与三处重点区 polygon 待组织方发布",
        "name_en": "Official overall boundary and three key-area polygons pending release",
        "handling_zh": "所有面积、比例与强度结论在正式边界发布后整体重算。",
        "handling_en": "All area, share and intensity conclusions are recomputed in full once the official boundary is released.",
        "usage_note": "仅表示待核资料的审查位置或接口；不是现状测绘、官方红线、法定控制或工程结论。",
        "area_sqm_declared": 12045288.719,
        "id": "CONSTRAINT-001"
      },
      "geometry": {
        "type": "Polygon",
        "coordinates": [
          [
            [
              116.3407,
              39.939
            ],
            [
              116.3553,
              39.939
            ],
            [
              116.3553,
              40.0265
            ],
            [
              116.3407,
              40.0265
            ],
            [
              116.3407,
              39.939
            ]
          ]
        ]
      }
    },
    {
      "type": "Feature",
      "id": "CONSTRAINT-002",
      "properties": {
        "layer": "REGULATORY_CONTROL",
        "source_type": "unknown",
        "confidence": "unknown",
        "geometry_role": "provisional_constraint",
        "constraint_type": "statutory_control_pending",
        "status": "data_gap",
        "official_boundary": false,
        "required_before_formal_use": true,
        "name_zh": "控规容积率、建筑高度与道路红线未获取",
        "name_en": "Statutory FAR, building height and road redlines not obtained",
        "handling_zh": "不输出容积率与高度结论，仅描述公共界面与可逆服务关系。",
        "handling_en": "No FAR or height conclusion is issued; only public-interface and reversible-service relationships are described.",
        "usage_note": "仅表示待核资料的审查位置或接口；不是现状测绘、官方红线、法定控制或工程结论。",
        "area_sqm_declared": 4542794.609,
        "id": "CONSTRAINT-002"
      },
      "geometry": {
        "type": "Polygon",
        "coordinates": [
          [
            [
              116.3407,
              39.9935
            ],
            [
              116.3553,
              39.9935
            ],
            [
              116.3553,
              40.0265
            ],
            [
              116.3407,
              40.0265
            ],
            [
              116.3407,
              39.9935
            ]
          ]
        ]
      }
    },
    {
      "type": "Feature",
      "id": "CONSTRAINT-003",
      "properties": {
        "layer": "REGULATORY_CONTROL",
        "source_type": "unknown",
        "confidence": "unknown",
        "geometry_role": "provisional_constraint",
        "constraint_type": "ownership_unknown",
        "status": "data_gap",
        "official_boundary": false,
        "required_before_formal_use": true,
        "name_zh": "地块权属与既有租约未获取",
        "name_en": "Parcel ownership and existing leases not obtained",
        "handling_zh": "不作地块级拆改留结论，采用功能清单而非名单。",
        "handling_en": "No parcel-level demolish/retain/renovate conclusion; a function list replaces a named list.",
        "usage_note": "仅表示待核资料的审查位置或接口；不是现状测绘、官方红线、法定控制或工程结论。",
        "area_sqm_declared": 1376604.422,
        "id": "CONSTRAINT-003"
      },
      "geometry": {
        "type": "Polygon",
        "coordinates": [
          [
            [
              116.3407,
              39.9835
            ],
            [
              116.3553,
              39.9835
            ],
            [
              116.3553,
              39.9935
            ],
            [
              116.3407,
              39.9935
            ],
            [
              116.3407,
              39.9835
            ]
          ]
        ]
      }
    },
    {
      "type": "Feature",
      "id": "CONSTRAINT-004",
      "properties": {
        "layer": "REGULATORY_CONTROL",
        "source_type": "unknown",
        "confidence": "unknown",
        "geometry_role": "provisional_constraint",
        "constraint_type": "rail_corridor_interface",
        "status": "needs_professional_review",
        "official_boundary": false,
        "required_before_formal_use": true,
        "name_zh": "既有铁路廊道交叉与安全距离待核",
        "name_en": "Existing rail corridor crossings and safety clearances pending review",
        "handling_zh": "所有跨越与并行段须经铁路主管单位复核后方可深化。",
        "handling_en": "Every crossing and parallel section requires railway-authority review before further development.",
        "usage_note": "仅表示待核资料的审查位置或接口；不是现状测绘、官方红线、法定控制或工程结论。",
        "area_sqm_declared": 3420862.0,
        "id": "CONSTRAINT-004"
      },
      "geometry": {
        "type": "Polygon",
        "coordinates": [
          [
            [
              116.3407,
              39.9498
            ],
            [
              116.348,
              39.9498
            ],
            [
              116.348,
              39.9995
            ],
            [
              116.3407,
              39.9995
            ],
            [
              116.3407,
              39.9498
            ]
          ]
        ]
      }
    },
    {
      "type": "Feature",
      "id": "CONSTRAINT-005",
      "properties": {
        "layer": "REGULATORY_CONTROL",
        "source_type": "unknown",
        "confidence": "unknown",
        "geometry_role": "provisional_constraint",
        "constraint_type": "heritage_interface",
        "status": "needs_professional_review",
        "official_boundary": false,
        "required_before_formal_use": true,
        "name_zh": "遗址与文保建控地带范围待核",
        "name_en": "Heritage site and control-zone extents pending review",
        "handling_zh": "遗址范围内仅提可逆、可拆卸设施建议。",
        "handling_en": "Only reversible, demountable facilities are suggested within the heritage extent.",
        "usage_note": "仅表示待核资料的审查位置或接口；不是现状测绘、官方红线、法定控制或工程结论。",
        "area_sqm_declared": 852363.289,
        "id": "CONSTRAINT-005"
      },
      "geometry": {
        "type": "Polygon",
        "coordinates": [
          [
            [
              116.344,
              39.9995
            ],
            [
              116.3553,
              39.9995
            ],
            [
              116.3553,
              40.0075
            ],
            [
              116.344,
              40.0075
            ],
            [
              116.344,
              39.9995
            ]
          ]
        ]
      }
    },
    {
      "type": "Feature",
      "id": "CONSTRAINT-006",
      "properties": {
        "layer": "REGULATORY_CONTROL",
        "source_type": "unknown",
        "confidence": "unknown",
        "geometry_role": "provisional_constraint",
        "constraint_type": "municipal_capacity_unknown",
        "status": "data_gap",
        "official_boundary": false,
        "required_before_formal_use": true,
        "name_zh": "市政容量、管网与出水口资料未获取",
        "name_en": "Municipal capacity, pipe network and outfall data not obtained",
        "handling_zh": "不作市政扩容与投资测算结论。",
        "handling_en": "No municipal expansion or investment-estimate conclusion is issued.",
        "usage_note": "仅表示待核资料的审查位置或接口；不是现状测绘、官方红线、法定控制或工程结论。",
        "area_sqm_declared": 1486732.773,
        "id": "CONSTRAINT-006"
      },
      "geometry": {
        "type": "Polygon",
        "coordinates": [
          [
            [
              116.3407,
              39.939
            ],
            [
              116.3553,
              39.939
            ],
            [
              116.3553,
              39.9498
            ],
            [
              116.3407,
              39.9498
            ],
            [
              116.3407,
              39.939
            ]
          ]
        ]
      }
    },
    {
      "type": "Feature",
      "id": "CONSTRAINT-007",
      "properties": {
        "layer": "REGULATORY_CONTROL",
        "source_type": "unknown",
        "confidence": "unknown",
        "geometry_role": "provisional_constraint",
        "constraint_type": "flood_path_unverified",
        "status": "needs_professional_review",
        "official_boundary": false,
        "required_before_formal_use": true,
        "name_zh": "超标暴雨行泄路径未验证",
        "name_en": "Exceedance storm overflow paths unverified",
        "handling_zh": "无障碍主线避开未验证的行泄路径。",
        "handling_en": "Accessible primary routes avoid unverified overflow paths.",
        "usage_note": "仅表示待核资料的审查位置或接口；不是现状测绘、官方红线、法定控制或工程结论。",
        "area_sqm_declared": 2546718.188,
        "id": "CONSTRAINT-007"
      },
      "geometry": {
        "type": "Polygon",
        "coordinates": [
          [
            [
              116.3407,
              39.965
            ],
            [
              116.3553,
              39.965
            ],
            [
              116.3553,
              39.9835
            ],
            [
              116.3407,
              39.9835
            ],
            [
              116.3407,
              39.965
            ]
          ]
        ]
      }
    },
    {
      "type": "Feature",
      "id": "CONSTRAINT-008",
      "properties": {
        "layer": "REGULATORY_CONTROL",
        "source_type": "unknown",
        "confidence": "unknown",
        "geometry_role": "provisional_constraint",
        "constraint_type": "compute_energy_interface",
        "status": "needs_professional_review",
        "official_boundary": false,
        "required_before_formal_use": true,
        "name_zh": "算力设施能耗与余热接口待核",
        "name_en": "Compute-facility energy and waste-heat interfaces pending review",
        "handling_zh": "算电协同仅作概念接口，不宣称本地设施存在或达标。",
        "handling_en": "Compute-energy coupling remains a conceptual interface; no claim of local facility existence or compliance.",
        "usage_note": "仅表示待核资料的审查位置或接口；不是现状测绘、官方红线、法定控制或工程结论。",
        "area_sqm_declared": 552338.953,
        "id": "CONSTRAINT-008"
      },
      "geometry": {
        "type": "Polygon",
        "coordinates": [
          [
            [
              116.3452,
              39.944
            ],
            [
              116.3553,
              39.944
            ],
            [
              116.3553,
              39.9498
            ],
            [
              116.3452,
              39.9498
            ],
            [
              116.3452,
              39.944
            ]
          ]
        ]
      }
    },
    {
      "type": "Feature",
      "id": "CONSTRAINT-009",
      "properties": {
        "layer": "REGULATORY_CONTROL",
        "source_type": "unknown",
        "confidence": "unknown",
        "geometry_role": "provisional_constraint",
        "constraint_type": "robot_public_route_limit",
        "status": "controlled_by_gate",
        "official_boundary": false,
        "required_before_formal_use": true,
        "name_zh": "具身智能公共路权限制区",
        "name_en": "Embodied-AI public right-of-way restricted zone",
        "handling_zh": "居住段禁止无人值守机器人通行，仅允许低速有人陪同窗口。",
        "handling_en": "Unattended robots are barred in the residential segment; only low-speed accompanied windows are allowed.",
        "usage_note": "仅表示待核资料的审查位置或接口；不是现状测绘、官方红线、法定控制或工程结论。",
        "area_sqm_declared": 999452.531,
        "id": "CONSTRAINT-009"
      },
      "geometry": {
        "type": "Polygon",
        "coordinates": [
          [
            [
              116.3426,
              39.9835
            ],
            [
              116.3532,
              39.9835
            ],
            [
              116.3532,
              39.9935
            ],
            [
              116.3426,
              39.9935
            ],
            [
              116.3426,
              39.9835
            ]
          ]
        ]
      }
    },
    {
      "type": "Feature",
      "id": "CONSTRAINT-010",
      "properties": {
        "layer": "REGULATORY_CONTROL",
        "source_type": "unknown",
        "confidence": "unknown",
        "geometry_role": "provisional_constraint",
        "constraint_type": "sensor_free_zone",
        "status": "controlled_by_gate",
        "official_boundary": false,
        "required_before_formal_use": true,
        "name_zh": "无感知设备保留区",
        "name_en": "Sensor-free reserved zone",
        "handling_zh": "住宅贴邻的街道客厅设为无摄像与无采集区。",
        "handling_en": "The street living room adjoining housing is a no-camera, no-collection area.",
        "usage_note": "仅表示待核资料的审查位置或接口；不是现状测绘、官方红线、法定控制或工程结论。",
        "area_sqm_declared": 171981.258,
        "id": "CONSTRAINT-010"
      },
      "geometry": {
        "type": "Polygon",
        "coordinates": [
          [
            [
              116.3426,
              39.9842
            ],
            [
              116.3474,
              39.9842
            ],
            [
              116.3474,
              39.988
            ],
            [
              116.3426,
              39.988
            ],
            [
              116.3426,
              39.9842
            ]
          ]
        ]
      }
    },
    {
      "type": "Feature",
      "id": "CONSTRAINT-011",
      "properties": {
        "layer": "REGULATORY_CONTROL",
        "source_type": "unknown",
        "confidence": "unknown",
        "geometry_role": "provisional_constraint",
        "constraint_type": "night_quiet_threshold",
        "status": "controlled_by_gate",
        "official_boundary": false,
        "required_before_formal_use": true,
        "name_zh": "夜间安静阈值控制段",
        "name_en": "Night-time quiet threshold segment",
        "handling_zh": "夜间活动容量可降为零，居民路线优先。",
        "handling_en": "Night-time event capacity may drop to zero; resident routes take priority.",
        "usage_note": "仅表示待核资料的审查位置或接口；不是现状测绘、官方红线、法定控制或工程结论。",
        "area_sqm_declared": 1376604.422,
        "id": "CONSTRAINT-011"
      },
      "geometry": {
        "type": "Polygon",
        "coordinates": [
          [
            [
              116.3407,
              39.9835
            ],
            [
              116.3553,
              39.9835
            ],
            [
              116.3553,
              39.9935
            ],
            [
              116.3407,
              39.9935
            ],
            [
              116.3407,
              39.9835
            ]
          ]
        ]
      }
    },
    {
      "type": "Feature",
      "id": "CONSTRAINT-012",
      "properties": {
        "layer": "REGULATORY_CONTROL",
        "source_type": "unknown",
        "confidence": "unknown",
        "geometry_role": "provisional_constraint",
        "constraint_type": "accessibility_continuity_gap",
        "status": "needs_professional_review",
        "official_boundary": false,
        "required_before_formal_use": true,
        "name_zh": "无障碍连续性断点待实测",
        "name_en": "Accessibility continuity breaks pending field survey",
        "handling_zh": "断点实测前不宣称连续可达。",
        "handling_en": "No continuous-accessibility claim before the field survey of breaks.",
        "usage_note": "仅表示待核资料的审查位置或接口；不是现状测绘、官方红线、法定控制或工程结论。",
        "area_sqm_declared": 3579171.5,
        "id": "CONSTRAINT-012"
      },
      "geometry": {
        "type": "Polygon",
        "coordinates": [
          [
            [
              116.3407,
              39.939
            ],
            [
              116.3553,
              39.939
            ],
            [
              116.3553,
              39.965
            ],
            [
              116.3407,
              39.965
            ],
            [
              116.3407,
              39.939
            ]
          ]
        ]
      }
    }
  ],
  "schema_version": "0.1.0",
  "crs_note": "WGS84 lon/lat; lengths and areas recomputed in a local planar approximation.",
  "boundary_basis": "provisional_boundary",
  "official_basis": false,
  "overlap_note_zh": "约束要素是资料缺口的审查范围，彼此可以重叠，也可以覆盖同一片用地；面积之和没有规划含义，禁止用作用地面积或控制面积。",
  "overlap_note_en": "Constraint features mark the review extent of a data gap. They may overlap one another and cover the same land. Their summed area carries no planning meaning and must not be used as a land or control area."
}
