{
  "type": "FeatureCollection",
  "features": [
    {
      "type": "Feature",
      "id": "GREEN-001",
      "properties": {
        "source_type": "agent_generated_design",
        "confidence": "medium",
        "geometry_role": "design_proposal",
        "boundary_basis": "provisional_boundary",
        "official_basis": false,
        "recalculation_status": "pending_official_boundary",
        "disclaimer_zh": "概念建议图层。不是官方红线、法定控制、现状测绘或工程结论；官方边界与权属资料到位后必须整体重算。",
        "disclaimer_en": "Concept-suggestion layer. Not an official redline, statutory control, surveyed existing condition or engineering conclusion; recalculate in full once official boundary and ownership data are released.",
        "layer": "GREEN_SPACE",
        "land_use_code": "1401",
        "name_zh": "众智园测试花园段",
        "name_en": "Zhongzhi test garden segment",
        "continuity": "connected_conceptual_segment",
        "overlap_rule": "mutually_exclusive_within_layer",
        "design_note_zh": "公园主廊最北段，白天是普通公园，划定时段才作为低速测试花园并现场公示。",
        "design_note_en": "Northernmost reach of the park spine: an ordinary park by day, used as a low-speed test garden only in posted time windows.",
        "zone_id": "Z1",
        "area_sqm_declared": 176507.086,
        "id": "GREEN-001"
      },
      "geometry": {
        "type": "Polygon",
        "coordinates": [
          [
            [
              116.3458,
              40.018
            ],
            [
              116.3482,
              40.018
            ],
            [
              116.3482,
              40.0258
            ],
            [
              116.3458,
              40.0258
            ],
            [
              116.3458,
              40.018
            ]
          ]
        ]
      }
    },
    {
      "type": "Feature",
      "id": "GREEN-002",
      "properties": {
        "source_type": "agent_generated_design",
        "confidence": "medium",
        "geometry_role": "design_proposal",
        "boundary_basis": "provisional_boundary",
        "official_basis": false,
        "recalculation_status": "pending_official_boundary",
        "disclaimer_zh": "概念建议图层。不是官方红线、法定控制、现状测绘或工程结论；官方边界与权属资料到位后必须整体重算。",
        "disclaimer_en": "Concept-suggestion layer. Not an official redline, statutory control, surveyed existing condition or engineering conclusion; recalculate in full once official boundary and ownership data are released.",
        "layer": "GREEN_SPACE",
        "land_use_code": "1401",
        "name_zh": "众智园中央绿轴段",
        "name_en": "Zhongzhi central green axis segment",
        "continuity": "connected_conceptual_segment",
        "overlap_rule": "mutually_exclusive_within_layer",
        "design_note_zh": "贯穿加速区的公园主廊，两侧研发体首层向绿轴开放。",
        "design_note_en": "Park spine through the acceleration area; the ground floors on both sides open onto it.",
        "zone_id": "Z1",
        "area_sqm_declared": 237605.695,
        "id": "GREEN-002"
      },
      "geometry": {
        "type": "Polygon",
        "coordinates": [
          [
            [
              116.3458,
              40.0075
            ],
            [
              116.3482,
              40.0075
            ],
            [
              116.3482,
              40.018
            ],
            [
              116.3458,
              40.018
            ],
            [
              116.3458,
              40.0075
            ]
          ]
        ]
      }
    },
    {
      "type": "Feature",
      "id": "GREEN-003",
      "properties": {
        "source_type": "agent_generated_design",
        "confidence": "medium",
        "geometry_role": "design_proposal",
        "boundary_basis": "provisional_boundary",
        "official_basis": false,
        "recalculation_status": "pending_official_boundary",
        "disclaimer_zh": "概念建议图层。不是官方红线、法定控制、现状测绘或工程结论；官方边界与权属资料到位后必须整体重算。",
        "disclaimer_en": "Concept-suggestion layer. Not an official redline, statutory control, surveyed existing condition or engineering conclusion; recalculate in full once official boundary and ownership data are released.",
        "layer": "GREEN_SPACE",
        "land_use_code": "1401",
        "name_zh": "北段遗址公园主段",
        "name_en": "North heritage park main segment",
        "continuity": "connected_conceptual_segment",
        "overlap_rule": "mutually_exclusive_within_layer",
        "design_note_zh": "遗址公园北主段，保持连续通行，铁轨遗存原位保留并可触摸。",
        "design_note_en": "Main northern heritage-park segment kept continuously walkable, with rail remains retained in place and touchable.",
        "zone_id": "TA",
        "area_sqm_declared": 316807.594,
        "id": "GREEN-003"
      },
      "geometry": {
        "type": "Polygon",
        "coordinates": [
          [
            [
              116.3458,
              39.9935
            ],
            [
              116.3482,
              39.9935
            ],
            [
              116.3482,
              40.0075
            ],
            [
              116.3458,
              40.0075
            ],
            [
              116.3458,
              39.9935
            ]
          ]
        ]
      }
    },
    {
      "type": "Feature",
      "id": "GREEN-004",
      "properties": {
        "source_type": "agent_generated_design",
        "confidence": "medium",
        "geometry_role": "design_proposal",
        "boundary_basis": "provisional_boundary",
        "official_basis": false,
        "recalculation_status": "pending_official_boundary",
        "disclaimer_zh": "概念建议图层。不是官方红线、法定控制、现状测绘或工程结论；官方边界与权属资料到位后必须整体重算。",
        "disclaimer_en": "Concept-suggestion layer. Not an official redline, statutory control, surveyed existing condition or engineering conclusion; recalculate in full once official boundary and ownership data are released.",
        "layer": "GREEN_SPACE",
        "land_use_code": "1401",
        "name_zh": "原点社区公园段",
        "name_en": "Origin Community park segment",
        "continuity": "connected_conceptual_segment",
        "overlap_rule": "mutually_exclusive_within_layer",
        "design_note_zh": "社区段公园，服务半径覆盖原点社区全部住宅组团。",
        "design_note_en": "Community park segment whose service radius covers every housing cluster of the Origin Community.",
        "zone_id": "Z2",
        "area_sqm_declared": 226291.133,
        "id": "GREEN-004"
      },
      "geometry": {
        "type": "Polygon",
        "coordinates": [
          [
            [
              116.3458,
              39.9835
            ],
            [
              116.3482,
              39.9835
            ],
            [
              116.3482,
              39.9935
            ],
            [
              116.3458,
              39.9935
            ],
            [
              116.3458,
              39.9835
            ]
          ]
        ]
      }
    },
    {
      "type": "Feature",
      "id": "GREEN-005",
      "properties": {
        "source_type": "agent_generated_design",
        "confidence": "medium",
        "geometry_role": "design_proposal",
        "boundary_basis": "provisional_boundary",
        "official_basis": false,
        "recalculation_status": "pending_official_boundary",
        "disclaimer_zh": "概念建议图层。不是官方红线、法定控制、现状测绘或工程结论；官方边界与权属资料到位后必须整体重算。",
        "disclaimer_en": "Concept-suggestion layer. Not an official redline, statutory control, surveyed existing condition or engineering conclusion; recalculate in full once official boundary and ownership data are released.",
        "layer": "GREEN_SPACE",
        "land_use_code": "1401",
        "name_zh": "南段遗址公园主段",
        "name_en": "South heritage park main segment",
        "continuity": "connected_conceptual_segment",
        "overlap_rule": "mutually_exclusive_within_layer",
        "design_note_zh": "遗址公园南主段，串联原点社区与大钟寺方向。",
        "design_note_en": "Main southern heritage-park segment linking the Origin Community towards Dazhongsi.",
        "zone_id": "TB",
        "area_sqm_declared": 418638.609,
        "id": "GREEN-005"
      },
      "geometry": {
        "type": "Polygon",
        "coordinates": [
          [
            [
              116.3458,
              39.965
            ],
            [
              116.3482,
              39.965
            ],
            [
              116.3482,
              39.9835
            ],
            [
              116.3458,
              39.9835
            ],
            [
              116.3458,
              39.965
            ]
          ]
        ]
      }
    },
    {
      "type": "Feature",
      "id": "GREEN-006",
      "properties": {
        "source_type": "agent_generated_design",
        "confidence": "medium",
        "geometry_role": "design_proposal",
        "boundary_basis": "provisional_boundary",
        "official_basis": false,
        "recalculation_status": "pending_official_boundary",
        "disclaimer_zh": "概念建议图层。不是官方红线、法定控制、现状测绘或工程结论；官方边界与权属资料到位后必须整体重算。",
        "disclaimer_en": "Concept-suggestion layer. Not an official redline, statutory control, surveyed existing condition or engineering conclusion; recalculate in full once official boundary and ownership data are released.",
        "layer": "GREEN_SPACE",
        "land_use_code": "1401",
        "name_zh": "南段林荫步道段",
        "name_en": "South shaded promenade segment",
        "continuity": "connected_conceptual_segment",
        "overlap_rule": "mutually_exclusive_within_layer",
        "design_note_zh": "连续遮荫步道段，针对夏季热暴露加密乔木与饮水点。",
        "design_note_en": "Continuous shaded promenade reach with denser trees and drinking points against summer heat exposure.",
        "zone_id": "TB",
        "area_sqm_declared": 343962.531,
        "id": "GREEN-006"
      },
      "geometry": {
        "type": "Polygon",
        "coordinates": [
          [
            [
              116.3458,
              39.9498
            ],
            [
              116.3482,
              39.9498
            ],
            [
              116.3482,
              39.965
            ],
            [
              116.3458,
              39.965
            ],
            [
              116.3458,
              39.9498
            ]
          ]
        ]
      }
    },
    {
      "type": "Feature",
      "id": "GREEN-007",
      "properties": {
        "source_type": "agent_generated_design",
        "confidence": "medium",
        "geometry_role": "design_proposal",
        "boundary_basis": "provisional_boundary",
        "official_basis": false,
        "recalculation_status": "pending_official_boundary",
        "disclaimer_zh": "概念建议图层。不是官方红线、法定控制、现状测绘或工程结论；官方边界与权属资料到位后必须整体重算。",
        "disclaimer_en": "Concept-suggestion layer. Not an official redline, statutory control, surveyed existing condition or engineering conclusion; recalculate in full once official boundary and ownership data are released.",
        "layer": "GREEN_SPACE",
        "land_use_code": "1401",
        "name_zh": "大钟寺公园收束段",
        "name_en": "Dazhongsi park closing segment",
        "continuity": "connected_conceptual_segment",
        "overlap_rule": "mutually_exclusive_within_layer",
        "design_note_zh": "公园主廊南端收束段，向南门户广场过渡。",
        "design_note_en": "Closing reach of the park spine, transitioning into the southern gateway plaza.",
        "zone_id": "Z3",
        "area_sqm_declared": 131248.859,
        "id": "GREEN-007"
      },
      "geometry": {
        "type": "Polygon",
        "coordinates": [
          [
            [
              116.3458,
              39.944
            ],
            [
              116.3482,
              39.944
            ],
            [
              116.3482,
              39.9498
            ],
            [
              116.3458,
              39.9498
            ],
            [
              116.3458,
              39.944
            ]
          ]
        ]
      }
    },
    {
      "type": "Feature",
      "id": "GREEN-008",
      "properties": {
        "source_type": "agent_generated_design",
        "confidence": "medium",
        "geometry_role": "design_proposal",
        "boundary_basis": "provisional_boundary",
        "official_basis": false,
        "recalculation_status": "pending_official_boundary",
        "disclaimer_zh": "概念建议图层。不是官方红线、法定控制、现状测绘或工程结论；官方边界与权属资料到位后必须整体重算。",
        "disclaimer_en": "Concept-suggestion layer. Not an official redline, statutory control, surveyed existing condition or engineering conclusion; recalculate in full once official boundary and ownership data are released.",
        "layer": "GREEN_SPACE",
        "land_use_code": "1401",
        "name_zh": "南段过渡公园西带",
        "name_en": "South transition park west band",
        "continuity": "connected_conceptual_segment",
        "overlap_rule": "mutually_exclusive_within_layer",
        "design_note_zh": "西侧公园带，与主廊并行形成双绿脉。",
        "design_note_en": "Western park band paralleling the spine to form a twin green thread.",
        "zone_id": "TB",
        "area_sqm_declared": 313978.953,
        "id": "GREEN-008"
      },
      "geometry": {
        "type": "Polygon",
        "coordinates": [
          [
            [
              116.341,
              39.965
            ],
            [
              116.3428,
              39.965
            ],
            [
              116.3428,
              39.9835
            ],
            [
              116.341,
              39.9835
            ],
            [
              116.341,
              39.965
            ]
          ]
        ]
      }
    },
    {
      "type": "Feature",
      "id": "GREEN-009",
      "properties": {
        "source_type": "agent_generated_design",
        "confidence": "medium",
        "geometry_role": "design_proposal",
        "boundary_basis": "provisional_boundary",
        "official_basis": false,
        "recalculation_status": "pending_official_boundary",
        "disclaimer_zh": "概念建议图层。不是官方红线、法定控制、现状测绘或工程结论；官方边界与权属资料到位后必须整体重算。",
        "disclaimer_en": "Concept-suggestion layer. Not an official redline, statutory control, surveyed existing condition or engineering conclusion; recalculate in full once official boundary and ownership data are released.",
        "layer": "GREEN_SPACE",
        "land_use_code": "1402",
        "name_zh": "铁路沿线防护绿带",
        "name_en": "Rail-side protective belt",
        "continuity": "connected_conceptual_segment",
        "overlap_rule": "mutually_exclusive_within_layer",
        "design_note_zh": "沿既有铁路的防护绿带，噪声衰减指标待实测确认。",
        "design_note_en": "Protective belt along the existing rail; its noise-attenuation performance awaits field measurement.",
        "zone_id": "TB",
        "area_sqm_declared": 200644.82,
        "id": "GREEN-009"
      },
      "geometry": {
        "type": "Polygon",
        "coordinates": [
          [
            [
              116.341,
              39.9498
            ],
            [
              116.3424,
              39.9498
            ],
            [
              116.3424,
              39.965
            ],
            [
              116.341,
              39.965
            ],
            [
              116.341,
              39.9498
            ]
          ]
        ]
      }
    },
    {
      "type": "Feature",
      "id": "GREEN-010",
      "properties": {
        "source_type": "agent_generated_design",
        "confidence": "medium",
        "geometry_role": "design_proposal",
        "boundary_basis": "provisional_boundary",
        "official_basis": false,
        "recalculation_status": "pending_official_boundary",
        "disclaimer_zh": "概念建议图层。不是官方红线、法定控制、现状测绘或工程结论；官方边界与权属资料到位后必须整体重算。",
        "disclaimer_en": "Concept-suggestion layer. Not an official redline, statutory control, surveyed existing condition or engineering conclusion; recalculate in full once official boundary and ownership data are released.",
        "layer": "GREEN_SPACE",
        "land_use_code": "1401",
        "name_zh": "西缝隙北口袋公园",
        "name_en": "West seam north pocket park",
        "continuity": "connected_conceptual_segment",
        "overlap_rule": "mutually_exclusive_within_layer",
        "design_note_zh": "西缝隙内的线性口袋公园，服务社区服务分区。",
        "design_note_en": "Linear pocket park in the west seam serving the community-service zone.",
        "zone_id": "Z1",
        "area_sqm_declared": 30172.148,
        "id": "GREEN-010"
      },
      "geometry": {
        "type": "Polygon",
        "coordinates": [
          [
            [
              116.345,
              40.009
            ],
            [
              116.3458,
              40.009
            ],
            [
              116.3458,
              40.013
            ],
            [
              116.345,
              40.013
            ],
            [
              116.345,
              40.009
            ]
          ]
        ]
      }
    },
    {
      "type": "Feature",
      "id": "GREEN-011",
      "properties": {
        "source_type": "agent_generated_design",
        "confidence": "medium",
        "geometry_role": "design_proposal",
        "boundary_basis": "provisional_boundary",
        "official_basis": false,
        "recalculation_status": "pending_official_boundary",
        "disclaimer_zh": "概念建议图层。不是官方红线、法定控制、现状测绘或工程结论；官方边界与权属资料到位后必须整体重算。",
        "disclaimer_en": "Concept-suggestion layer. Not an official redline, statutory control, surveyed existing condition or engineering conclusion; recalculate in full once official boundary and ownership data are released.",
        "layer": "GREEN_SPACE",
        "land_use_code": "1401",
        "name_zh": "西缝隙社区口袋公园",
        "name_en": "West seam community pocket park",
        "continuity": "connected_conceptual_segment",
        "overlap_rule": "mutually_exclusive_within_layer",
        "design_note_zh": "社区口袋公园，配置遮荫、座椅与饮水。",
        "design_note_en": "Community pocket park with shade, seating and drinking water.",
        "zone_id": "Z2",
        "area_sqm_declared": 45258.234,
        "id": "GREEN-011"
      },
      "geometry": {
        "type": "Polygon",
        "coordinates": [
          [
            [
              116.345,
              39.986
            ],
            [
              116.3458,
              39.986
            ],
            [
              116.3458,
              39.992
            ],
            [
              116.345,
              39.992
            ],
            [
              116.345,
              39.986
            ]
          ]
        ]
      }
    },
    {
      "type": "Feature",
      "id": "GREEN-012",
      "properties": {
        "source_type": "agent_generated_design",
        "confidence": "medium",
        "geometry_role": "design_proposal",
        "boundary_basis": "provisional_boundary",
        "official_basis": false,
        "recalculation_status": "pending_official_boundary",
        "disclaimer_zh": "概念建议图层。不是官方红线、法定控制、现状测绘或工程结论；官方边界与权属资料到位后必须整体重算。",
        "disclaimer_en": "Concept-suggestion layer. Not an official redline, statutory control, surveyed existing condition or engineering conclusion; recalculate in full once official boundary and ownership data are released.",
        "layer": "GREEN_SPACE",
        "land_use_code": "1401",
        "name_zh": "东缝隙北雨水花园",
        "name_en": "East seam north rain garden",
        "continuity": "connected_conceptual_segment",
        "overlap_rule": "mutually_exclusive_within_layer",
        "design_note_zh": "源头减排雨水花园，承接东侧街区带屋面径流。",
        "design_note_en": "Source-control rain garden receiving roof runoff from the eastern block band.",
        "zone_id": "TA",
        "area_sqm_declared": 56572.781,
        "id": "GREEN-012"
      },
      "geometry": {
        "type": "Polygon",
        "coordinates": [
          [
            [
              116.3482,
              40.0
            ],
            [
              116.3492,
              40.0
            ],
            [
              116.3492,
              40.006
            ],
            [
              116.3482,
              40.006
            ],
            [
              116.3482,
              40.0
            ]
          ]
        ]
      }
    },
    {
      "type": "Feature",
      "id": "GREEN-013",
      "properties": {
        "source_type": "agent_generated_design",
        "confidence": "medium",
        "geometry_role": "design_proposal",
        "boundary_basis": "provisional_boundary",
        "official_basis": false,
        "recalculation_status": "pending_official_boundary",
        "disclaimer_zh": "概念建议图层。不是官方红线、法定控制、现状测绘或工程结论；官方边界与权属资料到位后必须整体重算。",
        "disclaimer_en": "Concept-suggestion layer. Not an official redline, statutory control, surveyed existing condition or engineering conclusion; recalculate in full once official boundary and ownership data are released.",
        "layer": "GREEN_SPACE",
        "land_use_code": "1401",
        "name_zh": "东缝隙社区口袋公园",
        "name_en": "East seam community pocket park",
        "continuity": "connected_conceptual_segment",
        "overlap_rule": "mutually_exclusive_within_layer",
        "design_note_zh": "东侧社区口袋公园，紧邻共享客厅与服务台。",
        "design_note_en": "Eastern community pocket park adjoining the shared living room and help desk.",
        "zone_id": "Z2",
        "area_sqm_declared": 51858.383,
        "id": "GREEN-013"
      },
      "geometry": {
        "type": "Polygon",
        "coordinates": [
          [
            [
              116.3482,
              39.9845
            ],
            [
              116.3492,
              39.9845
            ],
            [
              116.3492,
              39.99
            ],
            [
              116.3482,
              39.99
            ],
            [
              116.3482,
              39.9845
            ]
          ]
        ]
      }
    },
    {
      "type": "Feature",
      "id": "GREEN-014",
      "properties": {
        "source_type": "agent_generated_design",
        "confidence": "medium",
        "geometry_role": "design_proposal",
        "boundary_basis": "provisional_boundary",
        "official_basis": false,
        "recalculation_status": "pending_official_boundary",
        "disclaimer_zh": "概念建议图层。不是官方红线、法定控制、现状测绘或工程结论；官方边界与权属资料到位后必须整体重算。",
        "disclaimer_en": "Concept-suggestion layer. Not an official redline, statutory control, surveyed existing condition or engineering conclusion; recalculate in full once official boundary and ownership data are released.",
        "layer": "GREEN_SPACE",
        "land_use_code": "1402",
        "name_zh": "小月河东岸防护绿地",
        "name_en": "Xiaoyuehe east-bank buffer",
        "continuity": "connected_conceptual_segment",
        "overlap_rule": "mutually_exclusive_within_layer",
        "design_note_zh": "河岸防护与生态缓冲，岸线做法待水务资料到位后确定。",
        "design_note_en": "Riverside protection and ecological buffer; the bank treatment awaits the water-authority dataset.",
        "zone_id": "TB",
        "area_sqm_declared": 196118.992,
        "id": "GREEN-014"
      },
      "geometry": {
        "type": "Polygon",
        "coordinates": [
          [
            [
              116.3534,
              39.956
            ],
            [
              116.355,
              39.956
            ],
            [
              116.355,
              39.969
            ],
            [
              116.3534,
              39.969
            ],
            [
              116.3534,
              39.956
            ]
          ]
        ]
      }
    }
  ],
  "schema_version": "0.1.0",
  "crs_note": "WGS84 lon/lat; areas recomputed with a documented local planar approximation (M_PER_DEG_LAT=110540, M_PER_DEG_LON=111320*cos(39.98275)).",
  "boundary_basis": "provisional_boundary",
  "official_basis": false,
  "cross_section_note_zh": "全带横断面自西向东为：西侧街区带(约341米)—西缝隙(约68米)—遗址公园主廊(约205米)—东缝隙(约85米)—东侧街区带(约495米)。",
  "cross_section_note_en": "West to east the belt section reads: western block band (~341 m), west seam (~68 m), heritage park spine (~205 m), east seam (~85 m), eastern block band (~495 m).",
  "overlap_note_zh": "本层内部要素互不重叠，且不落入非绿地用地分区，因此绿地率可直接由本层面积求和得到。",
  "overlap_note_en": "Features in this layer do not overlap one another and never fall inside a non-green land-use zone, so the green ratio can be summed directly from this layer."
}
