{
  "type": "FeatureCollection",
  "features": [
    {
      "type": "Feature",
      "id": "LU-R01",
      "properties": {
        "source_type": "agent_generated_design",
        "confidence": "medium",
        "geometry_role": "design_proposal",
        "boundary_basis": "provisional_boundary",
        "official_basis": false,
        "recalculation_status": "pending_official_boundary",
        "disclaimer_zh": "概念建议图层。不是官方红线、法定控制、现状测绘或工程结论；官方边界与权属资料到位后必须整体重算。",
        "disclaimer_en": "Concept-suggestion layer. Not an official redline, statutory control, surveyed existing condition or engineering conclusion; recalculate in full once official boundary and ownership data are released.",
        "layer": "LAND_USE",
        "land_use_code": "16",
        "name_zh": "留白与现状保留用地（第 1 片）",
        "name_en": "Reserved / existing-fabric retention land (part 1)",
        "unit_role": "land_use_zone_not_cadastral_parcel",
        "design_note_zh": "本方案只对增量与更新地块提出用地建议；其余范围以留白用地（代码 16）闭合覆盖，保留现状肌理与后续深化余量，待官方边界与权属数据发布后整体重算。",
        "design_note_en": "The proposal only advises land use for incremental and renewal parcels; the remainder is closed with reserved land (code 16), keeping the existing fabric and headroom for later stages until the official boundary and tenure data are released.",
        "zone_id": "Z-RESERVE",
        "band": "mixed",
        "area_sqm_declared": 4186973.319,
        "id": "LU-R01",
        "share_pct_design": 36.91
      },
      "geometry": {
        "type": "Polygon",
        "coordinates": [
          [
            [
              116.3553,
              39.965
            ],
            [
              116.3553,
              39.939
            ],
            [
              116.3407,
              39.939
            ],
            [
              116.3397,
              39.975
            ],
            [
              116.341,
              39.99515287
            ],
            [
              116.341,
              39.9935
            ],
            [
              116.341,
              39.9835
            ],
            [
              116.341,
              39.965
            ],
            [
              116.341,
              39.9498
            ],
            [
              116.341,
              39.94
            ],
            [
              116.345,
              39.94
            ],
            [
              116.345,
              39.9498
            ],
            [
              116.345,
              39.965
            ],
            [
              116.345,
              39.9835
            ],
            [
              116.345,
              39.9935
            ],
            [
              116.345,
              39.9995
            ],
            [
              116.345,
              40.0075
            ],
            [
              116.345,
              40.013
            ],
            [
              116.345,
              40.0258
            ],
            [
              116.34266585,
              40.02580002
            ],
            [
              116.34204141,
              40.01300001
            ],
            [
              116.34189498,
              40.00999791
            ],
            [
              116.3427,
              40.0265
            ],
            [
              116.3553,
              40.0265
            ],
            [
              116.3548111,
              40.0175808
            ],
            [
              116.355,
              40.02102726
            ],
            [
              116.355,
              40.0258
            ],
            [
              116.3492,
              40.0258
            ],
            [
              116.3492,
              40.013
            ],
            [
              116.3492,
              40.0075
            ],
            [
              116.3492,
              39.9935
            ],
            [
              116.3492,
              39.988
            ],
            [
              116.3492,
              39.9835
            ],
            [
              116.3492,
              39.969
            ],
            [
              116.35498011,
              39.969
            ],
            [
              116.3553,
              39.965
            ]
          ],
          [
            [
              116.3492,
              39.956
            ],
            [
              116.3492,
              39.944
            ],
            [
              116.3492,
              39.94
            ],
            [
              116.355,
              39.94
            ],
            [
              116.355,
              39.944
            ],
            [
              116.355,
              39.956
            ],
            [
              116.3534,
              39.95600003
            ],
            [
              116.3534,
              39.969
            ],
            [
              116.3492,
              39.969
            ],
            [
              116.3492,
              39.956
            ]
          ],
          [
            [
              116.3458,
              39.9395
            ],
            [
              116.3482,
              39.9395
            ],
            [
              116.3482,
              39.944
            ],
            [
              116.3458,
              39.944
            ],
            [
              116.3458,
              39.9395
            ]
          ]
        ]
      }
    },
    {
      "type": "Feature",
      "id": "LU-001",
      "properties": {
        "source_type": "agent_generated_design",
        "confidence": "medium",
        "geometry_role": "design_proposal",
        "boundary_basis": "provisional_boundary",
        "official_basis": false,
        "recalculation_status": "pending_official_boundary",
        "disclaimer_zh": "概念建议图层。不是官方红线、法定控制、现状测绘或工程结论；官方边界与权属资料到位后必须整体重算。",
        "disclaimer_en": "Concept-suggestion layer. Not an official redline, statutory control, surveyed existing condition or engineering conclusion; recalculate in full once official boundary and ownership data are released.",
        "layer": "LAND_USE",
        "land_use_code": "0802",
        "name_zh": "众智园中试验证科研用地",
        "name_en": "Zhongzhi pilot-validation research zone",
        "unit_role": "land_use_zone_not_cadastral_parcel",
        "design_note_zh": "面向中试与真实场景验证的科研分区，靠近西侧接驳便于设备与人员共享。",
        "design_note_en": "Research zone for pilot lines and real-scene validation, close to the western interchange for shared equipment and staff.",
        "zone_id": "Z1",
        "band": "west",
        "area_sqm_declared": 319386.878,
        "id": "LU-001",
        "share_pct_design": 2.82
      },
      "geometry": {
        "type": "Polygon",
        "coordinates": [
          [
            [
              116.345,
              40.0258
            ],
            [
              116.345,
              40.013
            ],
            [
              116.34204141,
              40.01300001
            ],
            [
              116.34266585,
              40.02580002
            ],
            [
              116.345,
              40.0258
            ]
          ]
        ]
      }
    },
    {
      "type": "Feature",
      "id": "LU-002",
      "properties": {
        "source_type": "agent_generated_design",
        "confidence": "medium",
        "geometry_role": "design_proposal",
        "boundary_basis": "provisional_boundary",
        "official_basis": false,
        "recalculation_status": "pending_official_boundary",
        "disclaimer_zh": "概念建议图层。不是官方红线、法定控制、现状测绘或工程结论；官方边界与权属资料到位后必须整体重算。",
        "disclaimer_en": "Concept-suggestion layer. Not an official redline, statutory control, surveyed existing condition or engineering conclusion; recalculate in full once official boundary and ownership data are released.",
        "layer": "LAND_USE",
        "land_use_code": "0702",
        "name_zh": "众智园社区服务设施用地",
        "name_en": "Zhongzhi community-service zone",
        "unit_role": "land_use_zone_not_cadastral_parcel",
        "design_note_zh": "为科研人群配置的日常服务分区，保障非通勤时段的生活支撑与线下人工窗口。",
        "design_note_en": "Everyday service zone for the research population, sustaining life support outside commuting hours with a staffed offline counter.",
        "zone_id": "Z1",
        "band": "west",
        "area_sqm_declared": 160383.48,
        "id": "LU-002",
        "share_pct_design": 1.41
      },
      "geometry": {
        "type": "Polygon",
        "coordinates": [
          [
            [
              116.345,
              40.013
            ],
            [
              116.345,
              40.0075
            ],
            [
              116.34177315,
              40.00750001
            ],
            [
              116.34204141,
              40.01300001
            ],
            [
              116.345,
              40.013
            ]
          ]
        ]
      }
    },
    {
      "type": "Feature",
      "id": "LU-003",
      "properties": {
        "source_type": "agent_generated_design",
        "confidence": "medium",
        "geometry_role": "design_proposal",
        "boundary_basis": "provisional_boundary",
        "official_basis": false,
        "recalculation_status": "pending_official_boundary",
        "disclaimer_zh": "概念建议图层。不是官方红线、法定控制、现状测绘或工程结论；官方边界与权属资料到位后必须整体重算。",
        "disclaimer_en": "Concept-suggestion layer. Not an official redline, statutory control, surveyed existing condition or engineering conclusion; recalculate in full once official boundary and ownership data are released.",
        "layer": "LAND_USE",
        "land_use_code": "0804",
        "name_zh": "北段教育科研配套用地",
        "name_en": "North education and research support zone",
        "unit_role": "land_use_zone_not_cadastral_parcel",
        "design_note_zh": "面向高校—企业联合培养的教育科研配套分区。",
        "design_note_en": "Education and research support zone for joint university-enterprise training.",
        "zone_id": "TA",
        "band": "west",
        "area_sqm_declared": 261257.801,
        "id": "LU-003",
        "share_pct_design": 2.3
      },
      "geometry": {
        "type": "Polygon",
        "coordinates": [
          [
            [
              116.345,
              40.0075
            ],
            [
              116.345,
              39.9995
            ],
            [
              116.34128051,
              39.9995
            ],
            [
              116.3417,
              40.006
            ],
            [
              116.34177315,
              40.00750001
            ],
            [
              116.345,
              40.0075
            ]
          ]
        ]
      }
    },
    {
      "type": "Feature",
      "id": "LU-004",
      "properties": {
        "source_type": "agent_generated_design",
        "confidence": "medium",
        "geometry_role": "design_proposal",
        "boundary_basis": "provisional_boundary",
        "official_basis": false,
        "recalculation_status": "pending_official_boundary",
        "disclaimer_zh": "概念建议图层。不是官方红线、法定控制、现状测绘或工程结论；官方边界与权属资料到位后必须整体重算。",
        "disclaimer_en": "Concept-suggestion layer. Not an official redline, statutory control, surveyed existing condition or engineering conclusion; recalculate in full once official boundary and ownership data are released.",
        "layer": "LAND_USE",
        "land_use_code": "0802",
        "name_zh": "北段西侧科研转化用地",
        "name_en": "North-west research-translation zone",
        "unit_role": "land_use_zone_not_cadastral_parcel",
        "design_note_zh": "承接学院路方向高校溢出成果的西侧转化分区。",
        "design_note_en": "Western translation zone absorbing university spillover from the Xueyuan Road direction.",
        "zone_id": "TA",
        "band": "west",
        "area_sqm_declared": 220542.35,
        "id": "LU-004",
        "share_pct_design": 1.94
      },
      "geometry": {
        "type": "Polygon",
        "coordinates": [
          [
            [
              116.345,
              39.9995
            ],
            [
              116.345,
              39.9935
            ],
            [
              116.341,
              39.9935
            ],
            [
              116.341,
              39.99515288
            ],
            [
              116.34128051,
              39.9995
            ],
            [
              116.345,
              39.9995
            ]
          ]
        ]
      }
    },
    {
      "type": "Feature",
      "id": "LU-005",
      "properties": {
        "source_type": "agent_generated_design",
        "confidence": "medium",
        "geometry_role": "design_proposal",
        "boundary_basis": "provisional_boundary",
        "official_basis": false,
        "recalculation_status": "pending_official_boundary",
        "disclaimer_zh": "概念建议图层。不是官方红线、法定控制、现状测绘或工程结论；官方边界与权属资料到位后必须整体重算。",
        "disclaimer_en": "Concept-suggestion layer. Not an official redline, statutory control, surveyed existing condition or engineering conclusion; recalculate in full once official boundary and ownership data are released.",
        "layer": "LAND_USE",
        "land_use_code": "0701",
        "name_zh": "AI原点社区城镇住宅用地",
        "name_en": "AI Origin Community residential zone",
        "unit_role": "land_use_zone_not_cadastral_parcel",
        "design_note_zh": "原点社区居住主体分区，强调既有社区保留与渐进更新，不做整体腾退。",
        "design_note_en": "Residential core of the Origin Community, emphasising retention of the existing community and incremental renewal rather than wholesale clearance.",
        "zone_id": "Z2",
        "band": "west",
        "area_sqm_declared": 377151.897,
        "id": "LU-005",
        "share_pct_design": 3.32
      },
      "geometry": {
        "type": "Polygon",
        "coordinates": [
          [
            [
              116.341,
              39.9935
            ],
            [
              116.345,
              39.9935
            ],
            [
              116.345,
              39.9835
            ],
            [
              116.341,
              39.9835
            ],
            [
              116.341,
              39.9935
            ]
          ]
        ]
      }
    },
    {
      "type": "Feature",
      "id": "LU-006",
      "properties": {
        "source_type": "agent_generated_design",
        "confidence": "medium",
        "geometry_role": "design_proposal",
        "boundary_basis": "provisional_boundary",
        "official_basis": false,
        "recalculation_status": "pending_official_boundary",
        "disclaimer_zh": "概念建议图层。不是官方红线、法定控制、现状测绘或工程结论；官方边界与权属资料到位后必须整体重算。",
        "disclaimer_en": "Concept-suggestion layer. Not an official redline, statutory control, surveyed existing condition or engineering conclusion; recalculate in full once official boundary and ownership data are released.",
        "layer": "LAND_USE",
        "land_use_code": "1401",
        "name_zh": "南段过渡公园绿地（西带）",
        "name_en": "South transition park (west band)",
        "unit_role": "land_use_zone_not_cadastral_parcel",
        "design_note_zh": "西侧公园带，与公园主廊并行形成双绿脉，承担乔木遮荫与雨水滞蓄。",
        "design_note_en": "Western park band paralleling the spine to form a twin green thread, carrying tree shade and stormwater retention.",
        "zone_id": "TB",
        "band": "west",
        "area_sqm_declared": 313978.955,
        "id": "LU-006",
        "share_pct_design": 2.77
      },
      "geometry": {
        "type": "Polygon",
        "coordinates": [
          [
            [
              116.341,
              39.9835
            ],
            [
              116.3428,
              39.9835
            ],
            [
              116.3428,
              39.965
            ],
            [
              116.341,
              39.965
            ],
            [
              116.341,
              39.9835
            ]
          ]
        ]
      }
    },
    {
      "type": "Feature",
      "id": "LU-007",
      "properties": {
        "source_type": "agent_generated_design",
        "confidence": "medium",
        "geometry_role": "design_proposal",
        "boundary_basis": "provisional_boundary",
        "official_basis": false,
        "recalculation_status": "pending_official_boundary",
        "disclaimer_zh": "概念建议图层。不是官方红线、法定控制、现状测绘或工程结论；官方边界与权属资料到位后必须整体重算。",
        "disclaimer_en": "Concept-suggestion layer. Not an official redline, statutory control, surveyed existing condition or engineering conclusion; recalculate in full once official boundary and ownership data are released.",
        "layer": "LAND_USE",
        "land_use_code": "0802",
        "name_zh": "南段过渡科研转化用地",
        "name_en": "South transition research-translation zone",
        "unit_role": "land_use_zone_not_cadastral_parcel",
        "design_note_zh": "南段过渡区的科研转化分区，规模低于两端重点区，承担溢出承接。",
        "design_note_en": "Research-translation zone of the southern transition area, smaller than the two key areas and absorbing their spillover.",
        "zone_id": "TB",
        "band": "west",
        "area_sqm_declared": 383752.056,
        "id": "LU-007",
        "share_pct_design": 3.38
      },
      "geometry": {
        "type": "Polygon",
        "coordinates": [
          [
            [
              116.3428,
              39.9835
            ],
            [
              116.345,
              39.9835
            ],
            [
              116.345,
              39.965
            ],
            [
              116.3428,
              39.965
            ],
            [
              116.3428,
              39.9835
            ]
          ]
        ]
      }
    },
    {
      "type": "Feature",
      "id": "LU-008",
      "properties": {
        "source_type": "agent_generated_design",
        "confidence": "medium",
        "geometry_role": "design_proposal",
        "boundary_basis": "provisional_boundary",
        "official_basis": false,
        "recalculation_status": "pending_official_boundary",
        "disclaimer_zh": "概念建议图层。不是官方红线、法定控制、现状测绘或工程结论；官方边界与权属资料到位后必须整体重算。",
        "disclaimer_en": "Concept-suggestion layer. Not an official redline, statutory control, surveyed existing condition or engineering conclusion; recalculate in full once official boundary and ownership data are released.",
        "layer": "LAND_USE",
        "land_use_code": "1402",
        "name_zh": "铁路沿线防护绿地",
        "name_en": "Rail-side protective green zone",
        "unit_role": "land_use_zone_not_cadastral_parcel",
        "design_note_zh": "沿既有铁路廊道的防护绿带，兼作噪声与视线缓冲，宽度以后续实测为准。",
        "design_note_en": "Protective belt along the existing rail corridor doubling as a noise and sightline buffer; the width awaits field survey.",
        "zone_id": "TB",
        "band": "west",
        "area_sqm_declared": 200644.809,
        "id": "LU-008",
        "share_pct_design": 1.77
      },
      "geometry": {
        "type": "Polygon",
        "coordinates": [
          [
            [
              116.341,
              39.965
            ],
            [
              116.3424,
              39.965
            ],
            [
              116.3424,
              39.9498
            ],
            [
              116.341,
              39.9498
            ],
            [
              116.341,
              39.965
            ]
          ]
        ]
      }
    },
    {
      "type": "Feature",
      "id": "LU-009",
      "properties": {
        "source_type": "agent_generated_design",
        "confidence": "medium",
        "geometry_role": "design_proposal",
        "boundary_basis": "provisional_boundary",
        "official_basis": false,
        "recalculation_status": "pending_official_boundary",
        "disclaimer_zh": "概念建议图层。不是官方红线、法定控制、现状测绘或工程结论；官方边界与权属资料到位后必须整体重算。",
        "disclaimer_en": "Concept-suggestion layer. Not an official redline, statutory control, surveyed existing condition or engineering conclusion; recalculate in full once official boundary and ownership data are released.",
        "layer": "LAND_USE",
        "land_use_code": "0701",
        "name_zh": "南段过渡居住用地",
        "name_en": "South transition residential zone",
        "unit_role": "land_use_zone_not_cadastral_parcel",
        "design_note_zh": "南段过渡区的既有居住分区，以维护与配套补足为主。",
        "design_note_en": "Existing residential zone in the southern transition area, addressed mainly through maintenance and facility top-up.",
        "zone_id": "TB",
        "band": "west",
        "area_sqm_declared": 372626.075,
        "id": "LU-009",
        "share_pct_design": 3.28
      },
      "geometry": {
        "type": "Polygon",
        "coordinates": [
          [
            [
              116.3424,
              39.965
            ],
            [
              116.345,
              39.965
            ],
            [
              116.345,
              39.9498
            ],
            [
              116.3424,
              39.9498
            ],
            [
              116.3424,
              39.965
            ]
          ]
        ]
      }
    },
    {
      "type": "Feature",
      "id": "LU-010",
      "properties": {
        "source_type": "agent_generated_design",
        "confidence": "medium",
        "geometry_role": "design_proposal",
        "boundary_basis": "provisional_boundary",
        "official_basis": false,
        "recalculation_status": "pending_official_boundary",
        "disclaimer_zh": "概念建议图层。不是官方红线、法定控制、现状测绘或工程结论；官方边界与权属资料到位后必须整体重算。",
        "disclaimer_en": "Concept-suggestion layer. Not an official redline, statutory control, surveyed existing condition or engineering conclusion; recalculate in full once official boundary and ownership data are released.",
        "layer": "LAND_USE",
        "land_use_code": "0806",
        "name_zh": "大钟寺医疗卫生用地",
        "name_en": "Dazhongsi health-service zone",
        "unit_role": "land_use_zone_not_cadastral_parcel",
        "design_note_zh": "面向产业与周边社区共享的医疗卫生配套分区。",
        "design_note_en": "Health-facility zone shared between the industrial cluster and neighbouring communities.",
        "zone_id": "Z3",
        "band": "west",
        "area_sqm_declared": 369608.859,
        "id": "LU-010",
        "share_pct_design": 3.26
      },
      "geometry": {
        "type": "Polygon",
        "coordinates": [
          [
            [
              116.341,
              39.9498
            ],
            [
              116.345,
              39.9498
            ],
            [
              116.345,
              39.94
            ],
            [
              116.341,
              39.94
            ],
            [
              116.341,
              39.9498
            ]
          ]
        ]
      }
    },
    {
      "type": "Feature",
      "id": "LU-011",
      "properties": {
        "source_type": "agent_generated_design",
        "confidence": "medium",
        "geometry_role": "design_proposal",
        "boundary_basis": "provisional_boundary",
        "official_basis": false,
        "recalculation_status": "pending_official_boundary",
        "disclaimer_zh": "概念建议图层。不是官方红线、法定控制、现状测绘或工程结论；官方边界与权属资料到位后必须整体重算。",
        "disclaimer_en": "Concept-suggestion layer. Not an official redline, statutory control, surveyed existing condition or engineering conclusion; recalculate in full once official boundary and ownership data are released.",
        "layer": "LAND_USE",
        "land_use_code": "0802",
        "name_zh": "众智园AI自主创新科研用地",
        "name_en": "Zhongzhi AI autonomous-innovation research zone",
        "unit_role": "land_use_zone_not_cadastral_parcel",
        "design_note_zh": "承接自主创新加速功能的科研主体分区，鼓励研发—中试—验证同址布局。",
        "design_note_en": "Primary research zone carrying the autonomous-innovation acceleration function, co-locating R&D, pilot line and validation.",
        "zone_id": "Z1",
        "band": "east",
        "area_sqm_declared": 683344.689,
        "id": "LU-011",
        "share_pct_design": 6.02
      },
      "geometry": {
        "type": "Polygon",
        "coordinates": [
          [
            [
              116.3492,
              40.013
            ],
            [
              116.3492,
              40.0258
            ],
            [
              116.355,
              40.0258
            ],
            [
              116.355,
              40.02102726
            ],
            [
              116.35456006,
              40.01300001
            ],
            [
              116.3492,
              40.013
            ]
          ]
        ]
      }
    },
    {
      "type": "Feature",
      "id": "LU-012",
      "properties": {
        "source_type": "agent_generated_design",
        "confidence": "medium",
        "geometry_role": "design_proposal",
        "boundary_basis": "provisional_boundary",
        "official_basis": false,
        "recalculation_status": "pending_official_boundary",
        "disclaimer_zh": "概念建议图层。不是官方红线、法定控制、现状测绘或工程结论；官方边界与权属资料到位后必须整体重算。",
        "disclaimer_en": "Concept-suggestion layer. Not an official redline, statutory control, surveyed existing condition or engineering conclusion; recalculate in full once official boundary and ownership data are released.",
        "layer": "LAND_USE",
        "land_use_code": "05",
        "name_zh": "众智园创新服务商业用地",
        "name_en": "Zhongzhi innovation-service commercial zone",
        "unit_role": "land_use_zone_not_cadastral_parcel",
        "design_note_zh": "创新服务、共享会客与展示交易功能，承担加速区对外界面。",
        "design_note_en": "Innovation services, shared reception and demonstration or trading; the outward interface of the acceleration area.",
        "zone_id": "Z1",
        "band": "east",
        "area_sqm_declared": 270148.993,
        "id": "LU-012",
        "share_pct_design": 2.38
      },
      "geometry": {
        "type": "Polygon",
        "coordinates": [
          [
            [
              116.3492,
              40.0075
            ],
            [
              116.3492,
              40.013
            ],
            [
              116.35456006,
              40.01300001
            ],
            [
              116.35425867,
              40.00750002
            ],
            [
              116.3492,
              40.0075
            ]
          ]
        ]
      }
    },
    {
      "type": "Feature",
      "id": "LU-013",
      "properties": {
        "source_type": "agent_generated_design",
        "confidence": "medium",
        "geometry_role": "design_proposal",
        "boundary_basis": "provisional_boundary",
        "official_basis": false,
        "recalculation_status": "pending_official_boundary",
        "disclaimer_zh": "概念建议图层。不是官方红线、法定控制、现状测绘或工程结论；官方边界与权属资料到位后必须整体重算。",
        "disclaimer_en": "Concept-suggestion layer. Not an official redline, statutory control, surveyed existing condition or engineering conclusion; recalculate in full once official boundary and ownership data are released.",
        "layer": "LAND_USE",
        "land_use_code": "0802",
        "name_zh": "北段东侧科研转化用地",
        "name_en": "North-east research-translation zone",
        "unit_role": "land_use_zone_not_cadastral_parcel",
        "design_note_zh": "东侧转化分区，与小月河场景赋能翼衔接，承担场景验证的落地面。",
        "design_note_en": "Eastern translation zone connected to the Xiaoyuehe scenario-enabling wing, providing the landing surface for scenario validation.",
        "zone_id": "TA",
        "band": "east",
        "area_sqm_declared": 617138.902,
        "id": "LU-013",
        "share_pct_design": 5.44
      },
      "geometry": {
        "type": "Polygon",
        "coordinates": [
          [
            [
              116.3492,
              39.9935
            ],
            [
              116.3492,
              40.0075
            ],
            [
              116.35425867,
              40.00750002
            ],
            [
              116.3534917,
              39.99350003
            ],
            [
              116.3492,
              39.9935
            ]
          ]
        ]
      }
    },
    {
      "type": "Feature",
      "id": "LU-014",
      "properties": {
        "source_type": "agent_generated_design",
        "confidence": "medium",
        "geometry_role": "design_proposal",
        "boundary_basis": "provisional_boundary",
        "official_basis": false,
        "recalculation_status": "pending_official_boundary",
        "disclaimer_zh": "概念建议图层。不是官方红线、法定控制、现状测绘或工程结论；官方边界与权属资料到位后必须整体重算。",
        "disclaimer_en": "Concept-suggestion layer. Not an official redline, statutory control, surveyed existing condition or engineering conclusion; recalculate in full once official boundary and ownership data are released.",
        "layer": "LAND_USE",
        "land_use_code": "0702",
        "name_zh": "AI原点社区服务设施用地",
        "name_en": "AI Origin Community service-facility zone",
        "unit_role": "land_use_zone_not_cadastral_parcel",
        "design_note_zh": "社区级公共服务与AI服务终端集中布局，任何终端都保留等效人工路径。",
        "design_note_en": "Community public services with clustered AI service terminals; every terminal keeps an equivalent staffed path.",
        "zone_id": "Z2",
        "band": "east",
        "area_sqm_declared": 217291.681,
        "id": "LU-014",
        "share_pct_design": 1.92
      },
      "geometry": {
        "type": "Polygon",
        "coordinates": [
          [
            [
              116.3492,
              39.988
            ],
            [
              116.3492,
              39.9935
            ],
            [
              116.3534917,
              39.99350003
            ],
            [
              116.3533,
              39.99
            ],
            [
              116.35346006,
              39.98800003
            ],
            [
              116.3492,
              39.988
            ]
          ]
        ]
      }
    },
    {
      "type": "Feature",
      "id": "LU-015",
      "properties": {
        "source_type": "agent_generated_design",
        "confidence": "medium",
        "geometry_role": "design_proposal",
        "boundary_basis": "provisional_boundary",
        "official_basis": false,
        "recalculation_status": "pending_official_boundary",
        "disclaimer_zh": "概念建议图层。不是官方红线、法定控制、现状测绘或工程结论；官方边界与权属资料到位后必须整体重算。",
        "disclaimer_en": "Concept-suggestion layer. Not an official redline, statutory control, surveyed existing condition or engineering conclusion; recalculate in full once official boundary and ownership data are released.",
        "layer": "LAND_USE",
        "land_use_code": "05",
        "name_zh": "AI原点社区商业服务用地",
        "name_en": "AI Origin Community commercial zone",
        "unit_role": "land_use_zone_not_cadastral_parcel",
        "design_note_zh": "沿街小尺度商业，承载居民与研发人群的共享日常。",
        "design_note_en": "Fine-grained street commerce carrying shared everyday life for residents and researchers.",
        "zone_id": "Z2",
        "band": "east",
        "area_sqm_declared": 188392.08,
        "id": "LU-015",
        "share_pct_design": 1.66
      },
      "geometry": {
        "type": "Polygon",
        "coordinates": [
          [
            [
              116.3492,
              39.9835
            ],
            [
              116.3492,
              39.988
            ],
            [
              116.35346006,
              39.98800003
            ],
            [
              116.35382015,
              39.98350002
            ],
            [
              116.3492,
              39.9835
            ]
          ]
        ]
      }
    },
    {
      "type": "Feature",
      "id": "LU-016",
      "properties": {
        "source_type": "agent_generated_design",
        "confidence": "medium",
        "geometry_role": "design_proposal",
        "boundary_basis": "provisional_boundary",
        "official_basis": false,
        "recalculation_status": "pending_official_boundary",
        "disclaimer_zh": "概念建议图层。不是官方红线、法定控制、现状测绘或工程结论；官方边界与权属资料到位后必须整体重算。",
        "disclaimer_en": "Concept-suggestion layer. Not an official redline, statutory control, surveyed existing condition or engineering conclusion; recalculate in full once official boundary and ownership data are released.",
        "layer": "LAND_USE",
        "land_use_code": "0803",
        "name_zh": "南段文化与公众理解用地",
        "name_en": "South culture and public-understanding zone",
        "unit_role": "land_use_zone_not_cadastral_parcel",
        "design_note_zh": "文化与公众理解AI的展示分区，把技术议题带回公共讨论。",
        "design_note_en": "Culture and public-AI-literacy display zone bringing technical questions back into public discussion.",
        "zone_id": "TB",
        "band": "east",
        "area_sqm_declared": 710949.645,
        "id": "LU-016",
        "share_pct_design": 6.27
      },
      "geometry": {
        "type": "Polygon",
        "coordinates": [
          [
            [
              116.3492,
              39.969
            ],
            [
              116.3492,
              39.9835
            ],
            [
              116.35382015,
              39.98350002
            ],
            [
              116.35498011,
              39.969
            ],
            [
              116.3492,
              39.969
            ]
          ]
        ]
      }
    },
    {
      "type": "Feature",
      "id": "LU-017",
      "properties": {
        "source_type": "agent_generated_design",
        "confidence": "medium",
        "geometry_role": "design_proposal",
        "boundary_basis": "provisional_boundary",
        "official_basis": false,
        "recalculation_status": "pending_official_boundary",
        "disclaimer_zh": "概念建议图层。不是官方红线、法定控制、现状测绘或工程结论；官方边界与权属资料到位后必须整体重算。",
        "disclaimer_en": "Concept-suggestion layer. Not an official redline, statutory control, surveyed existing condition or engineering conclusion; recalculate in full once official boundary and ownership data are released.",
        "layer": "LAND_USE",
        "land_use_code": "16",
        "name_zh": "全线留白用地",
        "name_en": "Belt-wide reserved zone",
        "unit_role": "land_use_zone_not_cadastral_parcel",
        "design_note_zh": "为未来不确定功能预留的留白，概念阶段禁止指定用途，也不计入任何强度结论。",
        "design_note_en": "Reserved for future uncertain functions; no use may be assigned at concept stage and it enters no intensity conclusion.",
        "zone_id": "TB",
        "band": "east",
        "area_sqm_declared": 514812.34,
        "id": "LU-017",
        "share_pct_design": 4.54
      },
      "geometry": {
        "type": "Polygon",
        "coordinates": [
          [
            [
              116.3492,
              39.969
            ],
            [
              116.3534,
              39.969
            ],
            [
              116.3534,
              39.956
            ],
            [
              116.3492,
              39.956
            ],
            [
              116.3492,
              39.969
            ]
          ]
        ]
      }
    },
    {
      "type": "Feature",
      "id": "LU-018",
      "properties": {
        "source_type": "agent_generated_design",
        "confidence": "medium",
        "geometry_role": "design_proposal",
        "boundary_basis": "provisional_boundary",
        "official_basis": false,
        "recalculation_status": "pending_official_boundary",
        "disclaimer_zh": "概念建议图层。不是官方红线、法定控制、现状测绘或工程结论；官方边界与权属资料到位后必须整体重算。",
        "disclaimer_en": "Concept-suggestion layer. Not an official redline, statutory control, surveyed existing condition or engineering conclusion; recalculate in full once official boundary and ownership data are released.",
        "layer": "LAND_USE",
        "land_use_code": "05",
        "name_zh": "大钟寺AI产业商业服务用地",
        "name_en": "Dazhongsi AI-industry commercial zone",
        "unit_role": "land_use_zone_not_cadastral_parcel",
        "design_note_zh": "产业聚集区的商业服务与算力交易界面。",
        "design_note_en": "Commercial services and the compute-trading interface of the industrial cluster.",
        "zone_id": "TB",
        "band": "east",
        "area_sqm_declared": 656244.301,
        "id": "LU-018",
        "share_pct_design": 5.78
      },
      "geometry": {
        "type": "Polygon",
        "coordinates": [
          [
            [
              116.3492,
              39.956
            ],
            [
              116.355,
              39.956
            ],
            [
              116.355,
              39.944
            ],
            [
              116.3492,
              39.944
            ],
            [
              116.3492,
              39.956
            ]
          ]
        ]
      }
    },
    {
      "type": "Feature",
      "id": "LU-019",
      "properties": {
        "source_type": "agent_generated_design",
        "confidence": "medium",
        "geometry_role": "design_proposal",
        "boundary_basis": "provisional_boundary",
        "official_basis": false,
        "recalculation_status": "pending_official_boundary",
        "disclaimer_zh": "概念建议图层。不是官方红线、法定控制、现状测绘或工程结论；官方边界与权属资料到位后必须整体重算。",
        "disclaimer_en": "Concept-suggestion layer. Not an official redline, statutory control, surveyed existing condition or engineering conclusion; recalculate in full once official boundary and ownership data are released.",
        "layer": "LAND_USE",
        "land_use_code": "0802",
        "name_zh": "大钟寺AI产业科研用地",
        "name_en": "Dazhongsi AI-industry research zone",
        "unit_role": "land_use_zone_not_cadastral_parcel",
        "design_note_zh": "承接产业验证与规模化部署的科研分区。",
        "design_note_en": "Research zone carrying industrial validation and scaled deployment.",
        "zone_id": "Z3",
        "band": "east",
        "area_sqm_declared": 218748.1,
        "id": "LU-019",
        "share_pct_design": 1.93
      },
      "geometry": {
        "type": "Polygon",
        "coordinates": [
          [
            [
              116.3492,
              39.944
            ],
            [
              116.355,
              39.944
            ],
            [
              116.355,
              39.94
            ],
            [
              116.3492,
              39.94
            ],
            [
              116.3492,
              39.944
            ]
          ]
        ]
      }
    },
    {
      "type": "Feature",
      "id": "LU-020",
      "properties": {
        "source_type": "agent_generated_design",
        "confidence": "medium",
        "geometry_role": "design_proposal",
        "boundary_basis": "provisional_boundary",
        "official_basis": false,
        "recalculation_status": "pending_official_boundary",
        "disclaimer_zh": "概念建议图层。不是官方红线、法定控制、现状测绘或工程结论；官方边界与权属资料到位后必须整体重算。",
        "disclaimer_en": "Concept-suggestion layer. Not an official redline, statutory control, surveyed existing condition or engineering conclusion; recalculate in full once official boundary and ownership data are released.",
        "layer": "LAND_USE",
        "land_use_code": "1403",
        "name_zh": "大钟寺南门户广场用地",
        "name_en": "Dazhongsi south gateway plaza zone",
        "unit_role": "land_use_zone_not_cadastral_parcel",
        "design_note_zh": "南门户广场，承担到达、集散与公共表达，是全带最南端的公共起点。",
        "design_note_en": "Southern gateway plaza for arrival, dispersal and public expression; the southernmost public start of the belt.",
        "zone_id": "Z3",
        "band": "corridor",
        "area_sqm_declared": 101831.012,
        "id": "LU-020",
        "share_pct_design": 0.9
      },
      "geometry": {
        "type": "Polygon",
        "coordinates": [
          [
            [
              116.3458,
              39.944
            ],
            [
              116.3482,
              39.944
            ],
            [
              116.3482,
              39.9395
            ],
            [
              116.3458,
              39.9395
            ],
            [
              116.3458,
              39.944
            ]
          ]
        ]
      }
    }
  ],
  "schema_version": "0.1.0",
  "crs_note": "WGS84 lon/lat; areas recomputed with a documented local planar approximation (M_PER_DEG_LAT=110540, M_PER_DEG_LON=111320*cos(39.98275)).",
  "boundary_basis": "provisional_boundary",
  "official_basis": false,
  "cross_section_note_zh": "全带横断面自西向东为：西侧街区带(约341米)—西缝隙(约68米)—遗址公园主廊(约205米)—东缝隙(约85米)—东侧街区带(约495米)。",
  "cross_section_note_en": "West to east the belt section reads: western block band (~341 m), west seam (~68 m), heritage park spine (~205 m), east seam (~85 m), eastern block band (~495 m).",
  "land_use_total_sqm_declared": 7833822.057
}
