{
  "type": "FeatureCollection",
  "features": [
    {
      "type": "Feature",
      "id": "PHASE-001",
      "properties": {
        "source_type": "agent_generated_design",
        "confidence": "medium",
        "geometry_role": "design_proposal",
        "boundary_basis": "provisional_boundary",
        "official_basis": false,
        "recalculation_status": "pending_official_boundary",
        "disclaimer_zh": "概念建议图层。不是官方红线、法定控制、现状测绘或工程结论；官方边界与权属资料到位后必须整体重算。",
        "disclaimer_en": "Concept-suggestion layer. Not an official redline, statutory control, surveyed existing condition or engineering conclusion; recalculate in full once official boundary and ownership data are released.",
        "layer": "PHASE",
        "phase": "phase_1",
        "name_zh": "一期：公共底板与资料回填",
        "name_en": "Phase 1: public ground plane and data backfill",
        "phase_trigger_zh": "正式边界、权属、消防、道路和水务资料进入",
        "phase_trigger_en": "official boundary, ownership, fire, road and water data received",
        "owner": "professional_review_and_site_operator",
        "gate_status": "design_target",
        "design_note_zh": "先建公共底板与门户四件套，不动产权复杂地块。",
        "design_note_en": "Build the public ground plane and gate kit first; leave ownership-complex parcels untouched.",
        "area_sqm_declared": 4542794.609,
        "id": "PHASE-001"
      },
      "geometry": {
        "type": "Polygon",
        "coordinates": [
          [
            [
              116.3407,
              39.9935
            ],
            [
              116.3553,
              39.9935
            ],
            [
              116.3553,
              40.0265
            ],
            [
              116.3407,
              40.0265
            ],
            [
              116.3407,
              39.9935
            ]
          ]
        ]
      }
    },
    {
      "type": "Feature",
      "id": "PHASE-002",
      "properties": {
        "source_type": "agent_generated_design",
        "confidence": "medium",
        "geometry_role": "design_proposal",
        "boundary_basis": "provisional_boundary",
        "official_basis": false,
        "recalculation_status": "pending_official_boundary",
        "disclaimer_zh": "概念建议图层。不是官方红线、法定控制、现状测绘或工程结论；官方边界与权属资料到位后必须整体重算。",
        "disclaimer_en": "Concept-suggestion layer. Not an official redline, statutory control, surveyed existing condition or engineering conclusion; recalculate in full once official boundary and ownership data are released.",
        "layer": "PHASE",
        "phase": "phase_2",
        "name_zh": "二期：社区共享与场景验证",
        "name_en": "Phase 2: community sharing and scenario validation",
        "phase_trigger_zh": "一期公众复盘通过且无障碍连续性达标",
        "phase_trigger_en": "phase 1 public review passed and accessibility continuity met",
        "owner": "professional_review_and_site_operator",
        "gate_status": "design_target",
        "design_note_zh": "在社区段铺开共享服务与可审计场景，保留普通路径。",
        "design_note_en": "Roll out shared services and auditable scenarios in the community segment while retaining ordinary routes.",
        "area_sqm_declared": 6015761.336,
        "id": "PHASE-002"
      },
      "geometry": {
        "type": "Polygon",
        "coordinates": [
          [
            [
              116.3407,
              39.9498
            ],
            [
              116.3553,
              39.9498
            ],
            [
              116.3553,
              39.9935
            ],
            [
              116.3407,
              39.9935
            ],
            [
              116.3407,
              39.9498
            ]
          ]
        ]
      }
    },
    {
      "type": "Feature",
      "id": "PHASE-003",
      "properties": {
        "source_type": "agent_generated_design",
        "confidence": "medium",
        "geometry_role": "design_proposal",
        "boundary_basis": "provisional_boundary",
        "official_basis": false,
        "recalculation_status": "pending_official_boundary",
        "disclaimer_zh": "概念建议图层。不是官方红线、法定控制、现状测绘或工程结论；官方边界与权属资料到位后必须整体重算。",
        "disclaimer_en": "Concept-suggestion layer. Not an official redline, statutory control, surveyed existing condition or engineering conclusion; recalculate in full once official boundary and ownership data are released.",
        "layer": "PHASE",
        "phase": "phase_3",
        "name_zh": "三期：产业规模化与退出准备",
        "name_en": "Phase 3: industrial scaling and retirement readiness",
        "phase_trigger_zh": "二期误报基线公开且申诉闭环率达标",
        "phase_trigger_en": "phase 2 false-positive baseline published and appeal closure rate met",
        "owner": "professional_review_and_site_operator",
        "gate_status": "design_target",
        "design_note_zh": "产业段规模化部署，同时预置撤除准备金与退出记录。",
        "design_note_en": "Scale deployment in the industrial segment while pre-funding removal reserves and exit records.",
        "area_sqm_declared": 1486732.773,
        "id": "PHASE-003"
      },
      "geometry": {
        "type": "Polygon",
        "coordinates": [
          [
            [
              116.3407,
              39.939
            ],
            [
              116.3553,
              39.939
            ],
            [
              116.3553,
              39.9498
            ],
            [
              116.3407,
              39.9498
            ],
            [
              116.3407,
              39.939
            ]
          ]
        ]
      }
    }
  ],
  "schema_version": "0.1.0",
  "crs_note": "WGS84 lon/lat; lengths and areas recomputed in a local planar approximation.",
  "boundary_basis": "provisional_boundary",
  "official_basis": false,
  "envelope_note_zh": "分期要素是矩形外包络，用于表达时序覆盖范围，不是分期用地面积；三期外包络之和大于总用地面积属正常，请勿相加作为面积结论。",
  "envelope_note_en": "Phase features are rectangular envelopes expressing temporal coverage, not phase land areas. The three envelopes legitimately sum to more than the site area and must never be added into an area conclusion."
}
