{
  "type": "FeatureCollection",
  "features": [
    {
      "type": "Feature",
      "id": "PUBLIC-001",
      "properties": {
        "source_type": "agent_generated_design",
        "confidence": "medium",
        "geometry_role": "design_proposal",
        "boundary_basis": "provisional_boundary",
        "official_basis": false,
        "recalculation_status": "pending_official_boundary",
        "disclaimer_zh": "概念建议图层。不是官方红线、法定控制、现状测绘或工程结论；官方边界与权属资料到位后必须整体重算。",
        "disclaimer_en": "Concept-suggestion layer. Not an official redline, statutory control, surveyed existing condition or engineering conclusion; recalculate in full once official boundary and ownership data are released.",
        "layer": "PUBLIC_SPACE",
        "name_zh": "北门户到达厅",
        "name_en": "North gateway arrival room",
        "room_role": "gateway_room",
        "nesting": "nested_public_room_inside_park_or_block",
        "overlap_rule": "mutually_exclusive_within_layer",
        "design_note_zh": "北门户到达与集散，门户四件套齐备：等候、遮蔽、饮水、人工问询。",
        "design_note_en": "Northern arrival and dispersal with the full gate kit: waiting, shelter, drinking water and a staffed enquiry point.",
        "area_sqm_declared": 24232.016,
        "id": "PUBLIC-001"
      },
      "geometry": {
        "type": "Polygon",
        "coordinates": [
          [
            [
              116.3463,
              40.0246
            ],
            [
              116.3477,
              40.0246
            ],
            [
              116.3482,
              40.02491
            ],
            [
              116.3482,
              40.02549
            ],
            [
              116.3477,
              40.0258
            ],
            [
              116.3463,
              40.0258
            ],
            [
              116.3458,
              40.02549
            ],
            [
              116.3458,
              40.02491
            ],
            [
              116.3463,
              40.0246
            ]
          ]
        ]
      }
    },
    {
      "type": "Feature",
      "id": "PUBLIC-002",
      "properties": {
        "source_type": "agent_generated_design",
        "confidence": "medium",
        "geometry_role": "design_proposal",
        "boundary_basis": "provisional_boundary",
        "official_basis": false,
        "recalculation_status": "pending_official_boundary",
        "disclaimer_zh": "概念建议图层。不是官方红线、法定控制、现状测绘或工程结论；官方边界与权属资料到位后必须整体重算。",
        "disclaimer_en": "Concept-suggestion layer. Not an official redline, statutory control, surveyed existing condition or engineering conclusion; recalculate in full once official boundary and ownership data are released.",
        "layer": "PUBLIC_SPACE",
        "name_zh": "众智园共享前厅",
        "name_en": "Zhongzhi shared foyer",
        "room_role": "shared_foyer",
        "nesting": "nested_public_room_inside_park_or_block",
        "overlap_rule": "mutually_exclusive_within_layer",
        "design_note_zh": "研发体之间的共享前厅，向园区外来访者开放。",
        "design_note_en": "Shared foyer between research volumes, open to visitors from outside the campus.",
        "area_sqm_declared": 31397.902,
        "id": "PUBLIC-002"
      },
      "geometry": {
        "type": "Polygon",
        "coordinates": [
          [
            [
              116.3497,
              40.0212
            ],
            [
              116.3515,
              40.0212
            ],
            [
              116.352,
              40.02151
            ],
            [
              116.352,
              40.02219
            ],
            [
              116.3515,
              40.0225
            ],
            [
              116.3497,
              40.0225
            ],
            [
              116.3492,
              40.02219
            ],
            [
              116.3492,
              40.02151
            ],
            [
              116.3497,
              40.0212
            ]
          ]
        ]
      }
    },
    {
      "type": "Feature",
      "id": "PUBLIC-003",
      "properties": {
        "source_type": "agent_generated_design",
        "confidence": "medium",
        "geometry_role": "design_proposal",
        "boundary_basis": "provisional_boundary",
        "official_basis": false,
        "recalculation_status": "pending_official_boundary",
        "disclaimer_zh": "概念建议图层。不是官方红线、法定控制、现状测绘或工程结论；官方边界与权属资料到位后必须整体重算。",
        "disclaimer_en": "Concept-suggestion layer. Not an official redline, statutory control, surveyed existing condition or engineering conclusion; recalculate in full once official boundary and ownership data are released.",
        "layer": "PUBLIC_SPACE",
        "name_zh": "众智园中试展廊",
        "name_en": "Zhongzhi pilot gallery",
        "room_role": "display_gallery",
        "nesting": "nested_public_room_inside_park_or_block",
        "overlap_rule": "mutually_exclusive_within_layer",
        "design_note_zh": "中试成果面向公众的展廊，嵌在公园主廊内，无需预约。",
        "design_note_en": "Public-facing gallery of pilot outcomes nested in the park spine, requiring no appointment.",
        "area_sqm_declared": 64964.406,
        "id": "PUBLIC-003"
      },
      "geometry": {
        "type": "Polygon",
        "coordinates": [
          [
            [
              116.3463,
              40.015
            ],
            [
              116.3477,
              40.015
            ],
            [
              116.3482,
              40.01531
            ],
            [
              116.3482,
              40.01769
            ],
            [
              116.3477,
              40.018
            ],
            [
              116.3463,
              40.018
            ],
            [
              116.3458,
              40.01769
            ],
            [
              116.3458,
              40.01531
            ],
            [
              116.3463,
              40.015
            ]
          ]
        ]
      }
    },
    {
      "type": "Feature",
      "id": "PUBLIC-004",
      "properties": {
        "source_type": "agent_generated_design",
        "confidence": "medium",
        "geometry_role": "design_proposal",
        "boundary_basis": "provisional_boundary",
        "official_basis": false,
        "recalculation_status": "pending_official_boundary",
        "disclaimer_zh": "概念建议图层。不是官方红线、法定控制、现状测绘或工程结论；官方边界与权属资料到位后必须整体重算。",
        "disclaimer_en": "Concept-suggestion layer. Not an official redline, statutory control, surveyed existing condition or engineering conclusion; recalculate in full once official boundary and ownership data are released.",
        "layer": "PUBLIC_SPACE",
        "name_zh": "众智园服务平台",
        "name_en": "Zhongzhi service deck",
        "room_role": "service_deck",
        "nesting": "nested_public_room_inside_park_or_block",
        "overlap_rule": "mutually_exclusive_within_layer",
        "design_note_zh": "社区服务平台与人工窗口，服务时段与AI终端一致。",
        "design_note_en": "Community service deck with a staffed counter whose hours match the AI terminals.",
        "area_sqm_declared": 31020.833,
        "id": "PUBLIC-004"
      },
      "geometry": {
        "type": "Polygon",
        "coordinates": [
          [
            [
              116.3425916,
              40.01048582
            ],
            [
              116.3439916,
              40.01048581
            ],
            [
              116.3444916,
              40.01079581
            ],
            [
              116.3444916,
              40.01167581
            ],
            [
              116.34399161,
              40.01198582
            ],
            [
              116.34259161,
              40.01198582
            ],
            [
              116.3420916,
              40.01167582
            ],
            [
              116.3420916,
              40.01079582
            ],
            [
              116.3425916,
              40.01048582
            ]
          ]
        ]
      }
    },
    {
      "type": "Feature",
      "id": "PUBLIC-005",
      "properties": {
        "source_type": "agent_generated_design",
        "confidence": "medium",
        "geometry_role": "design_proposal",
        "boundary_basis": "provisional_boundary",
        "official_basis": false,
        "recalculation_status": "pending_official_boundary",
        "disclaimer_zh": "概念建议图层。不是官方红线、法定控制、现状测绘或工程结论；官方边界与权属资料到位后必须整体重算。",
        "disclaimer_en": "Concept-suggestion layer. Not an official redline, statutory control, surveyed existing condition or engineering conclusion; recalculate in full once official boundary and ownership data are released.",
        "layer": "PUBLIC_SPACE",
        "name_zh": "北段公园广场",
        "name_en": "North park plaza",
        "room_role": "park_plaza",
        "nesting": "nested_public_room_inside_park_or_block",
        "overlap_rule": "mutually_exclusive_within_layer",
        "design_note_zh": "公园中的集会广场，也是公众复盘会的固定场地。",
        "design_note_en": "Assembly plaza within the park, also the fixed venue for public review sessions.",
        "area_sqm_declared": 76278.977,
        "id": "PUBLIC-005"
      },
      "geometry": {
        "type": "Polygon",
        "coordinates": [
          [
            [
              116.3463,
              40.004
            ],
            [
              116.3477,
              40.004
            ],
            [
              116.3482,
              40.00431
            ],
            [
              116.3482,
              40.00719
            ],
            [
              116.3477,
              40.0075
            ],
            [
              116.3463,
              40.0075
            ],
            [
              116.3458,
              40.00719
            ],
            [
              116.3458,
              40.00431
            ],
            [
              116.3463,
              40.004
            ]
          ]
        ]
      }
    },
    {
      "type": "Feature",
      "id": "PUBLIC-006",
      "properties": {
        "source_type": "agent_generated_design",
        "confidence": "medium",
        "geometry_role": "design_proposal",
        "boundary_basis": "provisional_boundary",
        "official_basis": false,
        "recalculation_status": "pending_official_boundary",
        "disclaimer_zh": "概念建议图层。不是官方红线、法定控制、现状测绘或工程结论；官方边界与权属资料到位后必须整体重算。",
        "disclaimer_en": "Concept-suggestion layer. Not an official redline, statutory control, surveyed existing condition or engineering conclusion; recalculate in full once official boundary and ownership data are released.",
        "layer": "PUBLIC_SPACE",
        "name_zh": "北段解说平台",
        "name_en": "North interpretation deck",
        "room_role": "interpretation",
        "nesting": "nested_public_room_inside_park_or_block",
        "overlap_rule": "mutually_exclusive_within_layer",
        "design_note_zh": "遗址解说与公众理解平台，解说牌同步中英文与盲文。",
        "design_note_en": "Heritage interpretation and public-understanding deck; panels carry Chinese, English and braille.",
        "area_sqm_declared": 42335.301,
        "id": "PUBLIC-006"
      },
      "geometry": {
        "type": "Polygon",
        "coordinates": [
          [
            [
              116.3463,
              39.999
            ],
            [
              116.3477,
              39.999
            ],
            [
              116.3482,
              39.99931
            ],
            [
              116.3482,
              40.00069
            ],
            [
              116.3477,
              40.001
            ],
            [
              116.3463,
              40.001
            ],
            [
              116.3458,
              40.00069
            ],
            [
              116.3458,
              39.99931
            ],
            [
              116.3463,
              39.999
            ]
          ]
        ]
      }
    },
    {
      "type": "Feature",
      "id": "PUBLIC-007",
      "properties": {
        "source_type": "agent_generated_design",
        "confidence": "medium",
        "geometry_role": "design_proposal",
        "boundary_basis": "provisional_boundary",
        "official_basis": false,
        "recalculation_status": "pending_official_boundary",
        "disclaimer_zh": "概念建议图层。不是官方红线、法定控制、现状测绘或工程结论；官方边界与权属资料到位后必须整体重算。",
        "disclaimer_en": "Concept-suggestion layer. Not an official redline, statutory control, surveyed existing condition or engineering conclusion; recalculate in full once official boundary and ownership data are released.",
        "layer": "PUBLIC_SPACE",
        "name_zh": "北段过渡门户",
        "name_en": "North transition gate",
        "room_role": "gateway_room",
        "nesting": "nested_public_room_inside_park_or_block",
        "overlap_rule": "mutually_exclusive_within_layer",
        "design_note_zh": "北段过渡门户空间，标示从加速区进入过渡段。",
        "design_note_en": "Northern transition gate marking the move from the acceleration area into the transition reach.",
        "area_sqm_declared": 31020.746,
        "id": "PUBLIC-007"
      },
      "geometry": {
        "type": "Polygon",
        "coordinates": [
          [
            [
              116.3463,
              39.9935
            ],
            [
              116.3477,
              39.9935
            ],
            [
              116.3482,
              39.99381
            ],
            [
              116.3482,
              39.99469
            ],
            [
              116.3477,
              39.995
            ],
            [
              116.3463,
              39.995
            ],
            [
              116.3458,
              39.99469
            ],
            [
              116.3458,
              39.99381
            ],
            [
              116.3463,
              39.9935
            ]
          ]
        ]
      }
    },
    {
      "type": "Feature",
      "id": "PUBLIC-008",
      "properties": {
        "source_type": "agent_generated_design",
        "confidence": "medium",
        "geometry_role": "design_proposal",
        "boundary_basis": "provisional_boundary",
        "official_basis": false,
        "recalculation_status": "pending_official_boundary",
        "disclaimer_zh": "概念建议图层。不是官方红线、法定控制、现状测绘或工程结论；官方边界与权属资料到位后必须整体重算。",
        "disclaimer_en": "Concept-suggestion layer. Not an official redline, statutory control, surveyed existing condition or engineering conclusion; recalculate in full once official boundary and ownership data are released.",
        "layer": "PUBLIC_SPACE",
        "name_zh": "原点社区中心广场",
        "name_en": "Origin Community central plaza",
        "room_role": "community_plaza",
        "nesting": "nested_public_room_inside_park_or_block",
        "overlap_rule": "mutually_exclusive_within_layer",
        "design_note_zh": "社区中心广场，日常与活动共用，活动期保留穿行路径。",
        "design_note_en": "Central community plaza shared by everyday use and events, keeping a through route open during events.",
        "area_sqm_declared": 53649.855,
        "id": "PUBLIC-008"
      },
      "geometry": {
        "type": "Polygon",
        "coordinates": [
          [
            [
              116.3463,
              39.9885
            ],
            [
              116.3477,
              39.9885
            ],
            [
              116.3482,
              39.98881
            ],
            [
              116.3482,
              39.99069
            ],
            [
              116.3477,
              39.991
            ],
            [
              116.3463,
              39.991
            ],
            [
              116.3458,
              39.99069
            ],
            [
              116.3458,
              39.98881
            ],
            [
              116.3463,
              39.9885
            ]
          ]
        ]
      }
    },
    {
      "type": "Feature",
      "id": "PUBLIC-009",
      "properties": {
        "source_type": "agent_generated_design",
        "confidence": "medium",
        "geometry_role": "design_proposal",
        "boundary_basis": "provisional_boundary",
        "official_basis": false,
        "recalculation_status": "pending_official_boundary",
        "disclaimer_zh": "概念建议图层。不是官方红线、法定控制、现状测绘或工程结论；官方边界与权属资料到位后必须整体重算。",
        "disclaimer_en": "Concept-suggestion layer. Not an official redline, statutory control, surveyed existing condition or engineering conclusion; recalculate in full once official boundary and ownership data are released.",
        "layer": "PUBLIC_SPACE",
        "name_zh": "原点社区街道客厅",
        "name_en": "Origin Community street living room",
        "room_role": "street_room",
        "nesting": "nested_public_room_inside_park_or_block",
        "overlap_rule": "mutually_exclusive_within_layer",
        "design_note_zh": "沿街可坐可停的街道客厅，座椅间距不超过五十米。",
        "design_note_en": "Sit-and-pause street living room with seating no more than fifty metres apart.",
        "area_sqm_declared": 26146.051,
        "id": "PUBLIC-009"
      },
      "geometry": {
        "type": "Polygon",
        "coordinates": [
          [
            [
              116.3497,
              39.9838
            ],
            [
              116.3525,
              39.9838
            ],
            [
              116.353,
              39.984067
            ],
            [
              116.353,
              39.984333
            ],
            [
              116.3525,
              39.9846
            ],
            [
              116.3497,
              39.9846
            ],
            [
              116.3492,
              39.984333
            ],
            [
              116.3492,
              39.984067
            ],
            [
              116.3497,
              39.9838
            ]
          ]
        ]
      }
    },
    {
      "type": "Feature",
      "id": "PUBLIC-010",
      "properties": {
        "source_type": "agent_generated_design",
        "confidence": "medium",
        "geometry_role": "design_proposal",
        "boundary_basis": "provisional_boundary",
        "official_basis": false,
        "recalculation_status": "pending_official_boundary",
        "disclaimer_zh": "概念建议图层。不是官方红线、法定控制、现状测绘或工程结论；官方边界与权属资料到位后必须整体重算。",
        "disclaimer_en": "Concept-suggestion layer. Not an official redline, statutory control, surveyed existing condition or engineering conclusion; recalculate in full once official boundary and ownership data are released.",
        "layer": "PUBLIC_SPACE",
        "name_zh": "原点社区服务台",
        "name_en": "Origin Community help desk",
        "room_role": "service_deck",
        "nesting": "nested_public_room_inside_park_or_block",
        "overlap_rule": "mutually_exclusive_within_layer",
        "design_note_zh": "人工服务台，提供非数字替代与申诉受理。",
        "design_note_en": "Staffed help desk providing the non-digital equivalent and appeal intake.",
        "area_sqm_declared": 14077.195,
        "id": "PUBLIC-010"
      },
      "geometry": {
        "type": "Polygon",
        "coordinates": [
          [
            [
              116.3501,
              39.9912
            ],
            [
              116.3513,
              39.9912
            ],
            [
              116.3518,
              39.991467
            ],
            [
              116.3518,
              39.991733
            ],
            [
              116.3513,
              39.992
            ],
            [
              116.3501,
              39.992
            ],
            [
              116.3496,
              39.991733
            ],
            [
              116.3496,
              39.991467
            ],
            [
              116.3501,
              39.9912
            ]
          ]
        ]
      }
    },
    {
      "type": "Feature",
      "id": "PUBLIC-011",
      "properties": {
        "source_type": "agent_generated_design",
        "confidence": "medium",
        "geometry_role": "design_proposal",
        "boundary_basis": "provisional_boundary",
        "official_basis": false,
        "recalculation_status": "pending_official_boundary",
        "disclaimer_zh": "概念建议图层。不是官方红线、法定控制、现状测绘或工程结论；官方边界与权属资料到位后必须整体重算。",
        "disclaimer_en": "Concept-suggestion layer. Not an official redline, statutory control, surveyed existing condition or engineering conclusion; recalculate in full once official boundary and ownership data are released.",
        "layer": "PUBLIC_SPACE",
        "name_zh": "南段林荫广场",
        "name_en": "South shaded plaza",
        "room_role": "park_plaza",
        "nesting": "nested_public_room_inside_park_or_block",
        "overlap_rule": "mutually_exclusive_within_layer",
        "design_note_zh": "南段遮荫广场，夏季正午遮荫覆盖率为设计目标。",
        "design_note_en": "Shaded plaza in the southern segment; midsummer noon shade coverage is a stated design target.",
        "area_sqm_declared": 64964.418,
        "id": "PUBLIC-011"
      },
      "geometry": {
        "type": "Polygon",
        "coordinates": [
          [
            [
              116.3463,
              39.974
            ],
            [
              116.3477,
              39.974
            ],
            [
              116.3482,
              39.97431
            ],
            [
              116.3482,
              39.97669
            ],
            [
              116.3477,
              39.977
            ],
            [
              116.3463,
              39.977
            ],
            [
              116.3458,
              39.97669
            ],
            [
              116.3458,
              39.97431
            ],
            [
              116.3463,
              39.974
            ]
          ]
        ]
      }
    },
    {
      "type": "Feature",
      "id": "PUBLIC-012",
      "properties": {
        "source_type": "agent_generated_design",
        "confidence": "medium",
        "geometry_role": "design_proposal",
        "boundary_basis": "provisional_boundary",
        "official_basis": false,
        "recalculation_status": "pending_official_boundary",
        "disclaimer_zh": "概念建议图层。不是官方红线、法定控制、现状测绘或工程结论；官方边界与权属资料到位后必须整体重算。",
        "disclaimer_en": "Concept-suggestion layer. Not an official redline, statutory control, surveyed existing condition or engineering conclusion; recalculate in full once official boundary and ownership data are released.",
        "layer": "PUBLIC_SPACE",
        "name_zh": "南段过渡门户",
        "name_en": "South transition gate",
        "room_role": "gateway_room",
        "nesting": "nested_public_room_inside_park_or_block",
        "overlap_rule": "mutually_exclusive_within_layer",
        "design_note_zh": "南段过渡门户空间，衔接社区段与产业段。",
        "design_note_en": "Southern transition gate linking the community reach to the industrial reach.",
        "area_sqm_declared": 31020.746,
        "id": "PUBLIC-012"
      },
      "geometry": {
        "type": "Polygon",
        "coordinates": [
          [
            [
              116.3463,
              39.964
            ],
            [
              116.3477,
              39.964
            ],
            [
              116.3482,
              39.96431
            ],
            [
              116.3482,
              39.96519
            ],
            [
              116.3477,
              39.9655
            ],
            [
              116.3463,
              39.9655
            ],
            [
              116.3458,
              39.96519
            ],
            [
              116.3458,
              39.96431
            ],
            [
              116.3463,
              39.964
            ]
          ]
        ]
      }
    },
    {
      "type": "Feature",
      "id": "PUBLIC-013",
      "properties": {
        "source_type": "agent_generated_design",
        "confidence": "medium",
        "geometry_role": "design_proposal",
        "boundary_basis": "provisional_boundary",
        "official_basis": false,
        "recalculation_status": "pending_official_boundary",
        "disclaimer_zh": "概念建议图层。不是官方红线、法定控制、现状测绘或工程结论；官方边界与权属资料到位后必须整体重算。",
        "disclaimer_en": "Concept-suggestion layer. Not an official redline, statutory control, surveyed existing condition or engineering conclusion; recalculate in full once official boundary and ownership data are released.",
        "layer": "PUBLIC_SPACE",
        "name_zh": "大钟寺产业前厅",
        "name_en": "Dazhongsi industry foyer",
        "room_role": "shared_foyer",
        "nesting": "nested_public_room_inside_park_or_block",
        "overlap_rule": "mutually_exclusive_within_layer",
        "design_note_zh": "产业区共享前厅，算力服务受理与公众参访共用入口。",
        "design_note_en": "Shared foyer of the industrial cluster; compute-service intake and public visits share one entrance.",
        "area_sqm_declared": 35546.559,
        "id": "PUBLIC-013"
      },
      "geometry": {
        "type": "Polygon",
        "coordinates": [
          [
            [
              116.3497,
              39.9548
            ],
            [
              116.3521,
              39.9548
            ],
            [
              116.3526,
              39.95511
            ],
            [
              116.3526,
              39.95569
            ],
            [
              116.3521,
              39.956
            ],
            [
              116.3497,
              39.956
            ],
            [
              116.3492,
              39.95569
            ],
            [
              116.3492,
              39.95511
            ],
            [
              116.3497,
              39.9548
            ]
          ]
        ]
      }
    },
    {
      "type": "Feature",
      "id": "PUBLIC-014",
      "properties": {
        "source_type": "agent_generated_design",
        "confidence": "medium",
        "geometry_role": "design_proposal",
        "boundary_basis": "provisional_boundary",
        "official_basis": false,
        "recalculation_status": "pending_official_boundary",
        "disclaimer_zh": "概念建议图层。不是官方红线、法定控制、现状测绘或工程结论；官方边界与权属资料到位后必须整体重算。",
        "disclaimer_en": "Concept-suggestion layer. Not an official redline, statutory control, surveyed existing condition or engineering conclusion; recalculate in full once official boundary and ownership data are released.",
        "layer": "PUBLIC_SPACE",
        "name_zh": "大钟寺验证观察廊",
        "name_en": "Dazhongsi validation viewing gallery",
        "room_role": "display_gallery",
        "nesting": "nested_public_room_inside_park_or_block",
        "overlap_rule": "mutually_exclusive_within_layer",
        "design_note_zh": "产业验证的可参访观察廊，验证进行时对外可见。",
        "design_note_en": "Visitable viewing gallery for industrial validation, visible from outside while validation runs.",
        "area_sqm_declared": 18603.016,
        "id": "PUBLIC-014"
      },
      "geometry": {
        "type": "Polygon",
        "coordinates": [
          [
            [
              116.3497,
              39.9494
            ],
            [
              116.3515,
              39.9494
            ],
            [
              116.352,
              39.949667
            ],
            [
              116.352,
              39.949933
            ],
            [
              116.3515,
              39.9502
            ],
            [
              116.3497,
              39.9502
            ],
            [
              116.3492,
              39.949933
            ],
            [
              116.3492,
              39.949667
            ],
            [
              116.3497,
              39.9494
            ]
          ]
        ]
      }
    },
    {
      "type": "Feature",
      "id": "PUBLIC-015",
      "properties": {
        "source_type": "agent_generated_design",
        "confidence": "medium",
        "geometry_role": "design_proposal",
        "boundary_basis": "provisional_boundary",
        "official_basis": false,
        "recalculation_status": "pending_official_boundary",
        "disclaimer_zh": "概念建议图层。不是官方红线、法定控制、现状测绘或工程结论；官方边界与权属资料到位后必须整体重算。",
        "disclaimer_en": "Concept-suggestion layer. Not an official redline, statutory control, surveyed existing condition or engineering conclusion; recalculate in full once official boundary and ownership data are released.",
        "layer": "PUBLIC_SPACE",
        "name_zh": "南门户广场",
        "name_en": "South gateway plaza",
        "room_role": "gateway_room",
        "nesting": "nested_public_room_inside_park_or_block",
        "overlap_rule": "mutually_exclusive_within_layer",
        "design_note_zh": "南门户广场，承担到达、集散与公共表达。",
        "design_note_en": "Southern gateway plaza for arrival, dispersal and public expression.",
        "area_sqm_declared": 64964.418,
        "id": "PUBLIC-015"
      },
      "geometry": {
        "type": "Polygon",
        "coordinates": [
          [
            [
              116.3463,
              39.9395
            ],
            [
              116.3477,
              39.9395
            ],
            [
              116.3482,
              39.93981
            ],
            [
              116.3482,
              39.94219
            ],
            [
              116.3477,
              39.9425
            ],
            [
              116.3463,
              39.9425
            ],
            [
              116.3458,
              39.94219
            ],
            [
              116.3458,
              39.93981
            ],
            [
              116.3463,
              39.9395
            ]
          ]
        ]
      }
    },
    {
      "type": "Feature",
      "id": "PUBLIC-016",
      "properties": {
        "source_type": "agent_generated_design",
        "confidence": "medium",
        "geometry_role": "design_proposal",
        "boundary_basis": "provisional_boundary",
        "official_basis": false,
        "recalculation_status": "pending_official_boundary",
        "disclaimer_zh": "概念建议图层。不是官方红线、法定控制、现状测绘或工程结论；官方边界与权属资料到位后必须整体重算。",
        "disclaimer_en": "Concept-suggestion layer. Not an official redline, statutory control, surveyed existing condition or engineering conclusion; recalculate in full once official boundary and ownership data are released.",
        "layer": "PUBLIC_SPACE",
        "name_zh": "小月河翼滨水平台",
        "name_en": "Xiaoyuehe wing waterfront deck",
        "room_role": "waterfront_deck",
        "nesting": "nested_public_room_inside_park_or_block",
        "overlap_rule": "mutually_exclusive_within_layer",
        "design_note_zh": "东翼滨水公共平台，嵌在防护绿地内，岸线做法待水务资料确认。",
        "design_note_en": "Eastern wing waterfront deck nested in the protective green; the bank treatment awaits the water-authority dataset.",
        "area_sqm_declared": 87593.527,
        "id": "PUBLIC-016"
      },
      "geometry": {
        "type": "Polygon",
        "coordinates": [
          [
            [
              116.3539,
              39.96
            ],
            [
              116.3545,
              39.96
            ],
            [
              116.355,
              39.96031
            ],
            [
              116.355,
              39.96569
            ],
            [
              116.3545,
              39.966
            ],
            [
              116.3539,
              39.966
            ],
            [
              116.3534,
              39.96569
            ],
            [
              116.3534,
              39.96031
            ],
            [
              116.3539,
              39.96
            ]
          ]
        ]
      }
    }
  ],
  "schema_version": "0.1.0",
  "crs_note": "WGS84 lon/lat; lengths and areas recomputed in a local planar approximation.",
  "boundary_basis": "provisional_boundary",
  "official_basis": false,
  "overlap_note_zh": "公共空间层是系统层，要素嵌在公园主廊或街区内部；层内互不重叠，公共空间率由本层面积求和一次得到。",
  "overlap_note_en": "The public-space layer is a system layer whose rooms nest inside the park spine or the blocks. Features do not overlap one another, so the public-space ratio is summed once from this layer."
}
