{
  "type": "FeatureCollection",
  "features": [
    {
      "type": "Feature",
      "id": "ROAD-001",
      "properties": {
        "source_type": "agent_generated_design",
        "confidence": "medium",
        "geometry_role": "design_proposal",
        "boundary_basis": "provisional_boundary",
        "official_basis": false,
        "recalculation_status": "pending_official_boundary",
        "disclaimer_zh": "概念建议图层。不是官方红线、法定控制、现状测绘或工程结论；官方边界与权属资料到位后必须整体重算。",
        "disclaimer_en": "Concept-suggestion layer. Not an official redline, statutory control, surveyed existing condition or engineering conclusion; recalculate in full once official boundary and ownership data are released.",
        "layer": "ROAD_CENTERLINE",
        "road_class": "greenway",
        "name_zh": "京张公共慢行主轴",
        "name_en": "Jing-Zhang public slow-mobility spine",
        "network_role": "north_south_spine",
        "design_intent_zh": "沿遗址公园的连续南北慢行主轴，串联三区两翼五门户。线位仅表达网络关系，不是道路红线。",
        "design_intent_en": "Continuous north-south slow-mobility spine along the heritage park linking three zones, two wings and five gates. An alignment expresses network relationships only, never a road redline.",
        "length_m_declared": 9562.6,
        "id": "ROAD-001"
      },
      "geometry": {
        "type": "LineString",
        "coordinates": [
          [
            116.348,
            39.9395
          ],
          [
            116.3478,
            39.95
          ],
          [
            116.3474,
            39.965
          ],
          [
            116.3472,
            39.9835
          ],
          [
            116.347,
            39.9935
          ],
          [
            116.3468,
            40.0075
          ],
          [
            116.3466,
            40.026
          ]
        ]
      }
    },
    {
      "type": "Feature",
      "id": "ROAD-002",
      "properties": {
        "source_type": "agent_generated_design",
        "confidence": "medium",
        "geometry_role": "design_proposal",
        "boundary_basis": "provisional_boundary",
        "official_basis": false,
        "recalculation_status": "pending_official_boundary",
        "disclaimer_zh": "概念建议图层。不是官方红线、法定控制、现状测绘或工程结论；官方边界与权属资料到位后必须整体重算。",
        "disclaimer_en": "Concept-suggestion layer. Not an official redline, statutory control, surveyed existing condition or engineering conclusion; recalculate in full once official boundary and ownership data are released.",
        "layer": "ROAD_CENTERLINE",
        "road_class": "cycleway",
        "name_zh": "西侧通勤自行车道",
        "name_en": "Western commuter cycleway",
        "network_role": "west_commuter",
        "design_intent_zh": "与主轴分离的通勤自行车道，避免休闲与通勤混流。",
        "design_intent_en": "Commuter cycleway separated from the spine so leisure and commuting flows do not mix.",
        "length_m_declared": 9506.6,
        "id": "ROAD-002"
      },
      "geometry": {
        "type": "LineString",
        "coordinates": [
          [
            116.3424,
            39.94
          ],
          [
            116.3422,
            39.965
          ],
          [
            116.342,
            39.9935
          ],
          [
            116.3418,
            40.026
          ]
        ]
      }
    },
    {
      "type": "Feature",
      "id": "ROAD-003",
      "properties": {
        "source_type": "agent_generated_design",
        "confidence": "medium",
        "geometry_role": "design_proposal",
        "boundary_basis": "provisional_boundary",
        "official_basis": false,
        "recalculation_status": "pending_official_boundary",
        "disclaimer_zh": "概念建议图层。不是官方红线、法定控制、现状测绘或工程结论；官方边界与权属资料到位后必须整体重算。",
        "disclaimer_en": "Concept-suggestion layer. Not an official redline, statutory control, surveyed existing condition or engineering conclusion; recalculate in full once official boundary and ownership data are released.",
        "layer": "ROAD_CENTERLINE",
        "road_class": "cycleway",
        "name_zh": "东侧场景自行车道",
        "name_en": "Eastern scenario cycleway",
        "network_role": "east_scenario",
        "design_intent_zh": "东翼场景走廊自行车道，服务小月河沿线验证点。",
        "design_intent_en": "Cycleway of the eastern scenario corridor serving validation points along Xiaoyuehe.",
        "length_m_declared": 8953.9,
        "id": "ROAD-003"
      },
      "geometry": {
        "type": "LineString",
        "coordinates": [
          [
            116.3536,
            39.944
          ],
          [
            116.3538,
            39.97
          ],
          [
            116.354,
            39.9935
          ],
          [
            116.3542,
            40.025
          ]
        ]
      }
    },
    {
      "type": "Feature",
      "id": "ROAD-004",
      "properties": {
        "source_type": "agent_generated_design",
        "confidence": "medium",
        "geometry_role": "design_proposal",
        "boundary_basis": "provisional_boundary",
        "official_basis": false,
        "recalculation_status": "pending_official_boundary",
        "disclaimer_zh": "概念建议图层。不是官方红线、法定控制、现状测绘或工程结论；官方边界与权属资料到位后必须整体重算。",
        "disclaimer_en": "Concept-suggestion layer. Not an official redline, statutory control, surveyed existing condition or engineering conclusion; recalculate in full once official boundary and ownership data are released.",
        "layer": "ROAD_CENTERLINE",
        "road_class": "pedestrian",
        "name_zh": "众智园内部步行环",
        "name_en": "Zhongzhi internal pedestrian loop",
        "network_role": "zone_loop",
        "design_intent_zh": "加速区内部步行环，串联研发、实验与服务。",
        "design_intent_en": "Internal pedestrian loop of the acceleration area linking R&D, laboratory and service.",
        "length_m_declared": 4919.8,
        "id": "ROAD-004"
      },
      "geometry": {
        "type": "LineString",
        "coordinates": [
          [
            116.3446,
            40.01
          ],
          [
            116.354,
            40.01
          ],
          [
            116.354,
            40.025
          ],
          [
            116.3446,
            40.025
          ],
          [
            116.3446,
            40.01
          ]
        ]
      }
    },
    {
      "type": "Feature",
      "id": "ROAD-005",
      "properties": {
        "source_type": "agent_generated_design",
        "confidence": "medium",
        "geometry_role": "design_proposal",
        "boundary_basis": "provisional_boundary",
        "official_basis": false,
        "recalculation_status": "pending_official_boundary",
        "disclaimer_zh": "概念建议图层。不是官方红线、法定控制、现状测绘或工程结论；官方边界与权属资料到位后必须整体重算。",
        "disclaimer_en": "Concept-suggestion layer. Not an official redline, statutory control, surveyed existing condition or engineering conclusion; recalculate in full once official boundary and ownership data are released.",
        "layer": "ROAD_CENTERLINE",
        "road_class": "pedestrian",
        "name_zh": "原点社区生活环",
        "name_en": "Origin Community everyday loop",
        "network_role": "zone_loop",
        "design_intent_zh": "社区生活环，保证15分钟可达。",
        "design_intent_en": "Everyday community loop securing 15-minute access.",
        "length_m_declared": 3898.5,
        "id": "ROAD-005"
      },
      "geometry": {
        "type": "LineString",
        "coordinates": [
          [
            116.3424,
            39.984
          ],
          [
            116.3532,
            39.984
          ],
          [
            116.3532,
            39.9933
          ],
          [
            116.3424,
            39.9933
          ],
          [
            116.3424,
            39.984
          ]
        ]
      }
    },
    {
      "type": "Feature",
      "id": "ROAD-006",
      "properties": {
        "source_type": "agent_generated_design",
        "confidence": "medium",
        "geometry_role": "design_proposal",
        "boundary_basis": "provisional_boundary",
        "official_basis": false,
        "recalculation_status": "pending_official_boundary",
        "disclaimer_zh": "概念建议图层。不是官方红线、法定控制、现状测绘或工程结论；官方边界与权属资料到位后必须整体重算。",
        "disclaimer_en": "Concept-suggestion layer. Not an official redline, statutory control, surveyed existing condition or engineering conclusion; recalculate in full once official boundary and ownership data are released.",
        "layer": "ROAD_CENTERLINE",
        "road_class": "pedestrian",
        "name_zh": "大钟寺产业环",
        "name_en": "Dazhongsi industry loop",
        "network_role": "zone_loop",
        "design_intent_zh": "产业区内部步行环，串联办公与验证中心。",
        "design_intent_en": "Internal pedestrian loop of the industrial cluster linking offices and the validation centre.",
        "length_m_declared": 5264.8,
        "id": "ROAD-006"
      },
      "geometry": {
        "type": "LineString",
        "coordinates": [
          [
            116.3424,
            39.9404
          ],
          [
            116.3546,
            39.9404
          ],
          [
            116.3546,
            39.9548
          ],
          [
            116.3424,
            39.9548
          ],
          [
            116.3424,
            39.9404
          ]
        ]
      }
    },
    {
      "type": "Feature",
      "id": "ROAD-007",
      "properties": {
        "source_type": "agent_generated_design",
        "confidence": "medium",
        "geometry_role": "design_proposal",
        "boundary_basis": "provisional_boundary",
        "official_basis": false,
        "recalculation_status": "pending_official_boundary",
        "disclaimer_zh": "概念建议图层。不是官方红线、法定控制、现状测绘或工程结论；官方边界与权属资料到位后必须整体重算。",
        "disclaimer_en": "Concept-suggestion layer. Not an official redline, statutory control, surveyed existing condition or engineering conclusion; recalculate in full once official boundary and ownership data are released.",
        "layer": "ROAD_CENTERLINE",
        "road_class": "transit_connection",
        "name_zh": "北门户轨道接驳线",
        "name_en": "North gateway transit connection",
        "network_role": "gate_connection",
        "design_intent_zh": "北门户到接驳站的短接线，全程无高差。",
        "design_intent_en": "Short level connection from the northern gate to the interchange.",
        "length_m_declared": 456.1,
        "id": "ROAD-007"
      },
      "geometry": {
        "type": "LineString",
        "coordinates": [
          [
            116.3466,
            40.0252
          ],
          [
            116.3432,
            40.0248
          ],
          [
            116.3418,
            40.0238
          ]
        ]
      }
    },
    {
      "type": "Feature",
      "id": "ROAD-008",
      "properties": {
        "source_type": "agent_generated_design",
        "confidence": "medium",
        "geometry_role": "design_proposal",
        "boundary_basis": "provisional_boundary",
        "official_basis": false,
        "recalculation_status": "pending_official_boundary",
        "disclaimer_zh": "概念建议图层。不是官方红线、法定控制、现状测绘或工程结论；官方边界与权属资料到位后必须整体重算。",
        "disclaimer_en": "Concept-suggestion layer. Not an official redline, statutory control, surveyed existing condition or engineering conclusion; recalculate in full once official boundary and ownership data are released.",
        "layer": "ROAD_CENTERLINE",
        "road_class": "transit_connection",
        "name_zh": "原点社区东接驳线",
        "name_en": "Origin Community east connection",
        "network_role": "gate_connection",
        "design_intent_zh": "社区东接驳线，衔接小月河翼。",
        "design_intent_en": "Eastern community connection towards the Xiaoyuehe wing.",
        "length_m_declared": 616.9,
        "id": "ROAD-008"
      },
      "geometry": {
        "type": "LineString",
        "coordinates": [
          [
            116.347,
            39.9905
          ],
          [
            116.351,
            39.9903
          ],
          [
            116.3542,
            39.99
          ]
        ]
      }
    },
    {
      "type": "Feature",
      "id": "ROAD-009",
      "properties": {
        "source_type": "agent_generated_design",
        "confidence": "medium",
        "geometry_role": "design_proposal",
        "boundary_basis": "provisional_boundary",
        "official_basis": false,
        "recalculation_status": "pending_official_boundary",
        "disclaimer_zh": "概念建议图层。不是官方红线、法定控制、现状测绘或工程结论；官方边界与权属资料到位后必须整体重算。",
        "disclaimer_en": "Concept-suggestion layer. Not an official redline, statutory control, surveyed existing condition or engineering conclusion; recalculate in full once official boundary and ownership data are released.",
        "layer": "ROAD_CENTERLINE",
        "road_class": "transit_connection",
        "name_zh": "南门户接驳线",
        "name_en": "South gateway transit connection",
        "network_role": "gate_connection",
        "design_intent_zh": "南门户接驳线，连接大钟寺站方向。",
        "design_intent_en": "Southern gateway connection towards Dazhongsi station.",
        "length_m_declared": 430.7,
        "id": "ROAD-009"
      },
      "geometry": {
        "type": "LineString",
        "coordinates": [
          [
            116.3478,
            39.9408
          ],
          [
            116.3505,
            39.9412
          ],
          [
            116.3524,
            39.9422
          ]
        ]
      }
    },
    {
      "type": "Feature",
      "id": "ROAD-010",
      "properties": {
        "source_type": "agent_generated_design",
        "confidence": "medium",
        "geometry_role": "design_proposal",
        "boundary_basis": "provisional_boundary",
        "official_basis": false,
        "recalculation_status": "pending_official_boundary",
        "disclaimer_zh": "概念建议图层。不是官方红线、法定控制、现状测绘或工程结论；官方边界与权属资料到位后必须整体重算。",
        "disclaimer_en": "Concept-suggestion layer. Not an official redline, statutory control, surveyed existing condition or engineering conclusion; recalculate in full once official boundary and ownership data are released.",
        "layer": "ROAD_CENTERLINE",
        "road_class": "secondary",
        "name_zh": "众智园次干路",
        "name_en": "Zhongzhi secondary road",
        "network_role": "east_west_secondary",
        "design_intent_zh": "加速区东西向次干路，承担机动与装卸。",
        "design_intent_en": "East-west secondary road of the acceleration area carrying vehicles and loading.",
        "length_m_declared": 1160.0,
        "id": "ROAD-010"
      },
      "geometry": {
        "type": "LineString",
        "coordinates": [
          [
            116.3412,
            40.013
          ],
          [
            116.3548,
            40.013
          ]
        ]
      }
    },
    {
      "type": "Feature",
      "id": "ROAD-011",
      "properties": {
        "source_type": "agent_generated_design",
        "confidence": "medium",
        "geometry_role": "design_proposal",
        "boundary_basis": "provisional_boundary",
        "official_basis": false,
        "recalculation_status": "pending_official_boundary",
        "disclaimer_zh": "概念建议图层。不是官方红线、法定控制、现状测绘或工程结论；官方边界与权属资料到位后必须整体重算。",
        "disclaimer_en": "Concept-suggestion layer. Not an official redline, statutory control, surveyed existing condition or engineering conclusion; recalculate in full once official boundary and ownership data are released.",
        "layer": "ROAD_CENTERLINE",
        "road_class": "secondary",
        "name_zh": "原点社区次干路",
        "name_en": "Origin Community secondary road",
        "network_role": "east_west_secondary",
        "design_intent_zh": "社区东西向次干路。",
        "design_intent_en": "East-west secondary road of the community.",
        "length_m_declared": 1160.0,
        "id": "ROAD-011"
      },
      "geometry": {
        "type": "LineString",
        "coordinates": [
          [
            116.3412,
            39.988
          ],
          [
            116.3548,
            39.988
          ]
        ]
      }
    },
    {
      "type": "Feature",
      "id": "ROAD-012",
      "properties": {
        "source_type": "agent_generated_design",
        "confidence": "medium",
        "geometry_role": "design_proposal",
        "boundary_basis": "provisional_boundary",
        "official_basis": false,
        "recalculation_status": "pending_official_boundary",
        "disclaimer_zh": "概念建议图层。不是官方红线、法定控制、现状测绘或工程结论；官方边界与权属资料到位后必须整体重算。",
        "disclaimer_en": "Concept-suggestion layer. Not an official redline, statutory control, surveyed existing condition or engineering conclusion; recalculate in full once official boundary and ownership data are released.",
        "layer": "ROAD_CENTERLINE",
        "road_class": "secondary",
        "name_zh": "大钟寺次干路",
        "name_en": "Dazhongsi secondary road",
        "network_role": "east_west_secondary",
        "design_intent_zh": "产业区东西向次干路。",
        "design_intent_en": "East-west secondary road of the industrial cluster.",
        "length_m_declared": 1194.2,
        "id": "ROAD-012"
      },
      "geometry": {
        "type": "LineString",
        "coordinates": [
          [
            116.341,
            39.9498
          ],
          [
            116.355,
            39.9498
          ]
        ]
      }
    },
    {
      "type": "Feature",
      "id": "ROAD-013",
      "properties": {
        "source_type": "agent_generated_design",
        "confidence": "medium",
        "geometry_role": "design_proposal",
        "boundary_basis": "provisional_boundary",
        "official_basis": false,
        "recalculation_status": "pending_official_boundary",
        "disclaimer_zh": "概念建议图层。不是官方红线、法定控制、现状测绘或工程结论；官方边界与权属资料到位后必须整体重算。",
        "disclaimer_en": "Concept-suggestion layer. Not an official redline, statutory control, surveyed existing condition or engineering conclusion; recalculate in full once official boundary and ownership data are released.",
        "layer": "ROAD_CENTERLINE",
        "road_class": "branch",
        "name_zh": "众智园支路A",
        "name_en": "Zhongzhi branch A",
        "network_role": "branch",
        "design_intent_zh": "加速区南北支路。",
        "design_intent_en": "North-south branch of the acceleration area.",
        "length_m_declared": 1746.5,
        "id": "ROAD-013"
      },
      "geometry": {
        "type": "LineString",
        "coordinates": [
          [
            116.3452,
            40.01
          ],
          [
            116.3452,
            40.0258
          ]
        ]
      }
    },
    {
      "type": "Feature",
      "id": "ROAD-014",
      "properties": {
        "source_type": "agent_generated_design",
        "confidence": "medium",
        "geometry_role": "design_proposal",
        "boundary_basis": "provisional_boundary",
        "official_basis": false,
        "recalculation_status": "pending_official_boundary",
        "disclaimer_zh": "概念建议图层。不是官方红线、法定控制、现状测绘或工程结论；官方边界与权属资料到位后必须整体重算。",
        "disclaimer_en": "Concept-suggestion layer. Not an official redline, statutory control, surveyed existing condition or engineering conclusion; recalculate in full once official boundary and ownership data are released.",
        "layer": "ROAD_CENTERLINE",
        "road_class": "branch",
        "name_zh": "众智园支路B",
        "name_en": "Zhongzhi branch B",
        "network_role": "branch",
        "design_intent_zh": "加速区东侧支路。",
        "design_intent_en": "Eastern branch of the acceleration area.",
        "length_m_declared": 1746.5,
        "id": "ROAD-014"
      },
      "geometry": {
        "type": "LineString",
        "coordinates": [
          [
            116.3516,
            40.01
          ],
          [
            116.3516,
            40.0258
          ]
        ]
      }
    },
    {
      "type": "Feature",
      "id": "ROAD-015",
      "properties": {
        "source_type": "agent_generated_design",
        "confidence": "medium",
        "geometry_role": "design_proposal",
        "boundary_basis": "provisional_boundary",
        "official_basis": false,
        "recalculation_status": "pending_official_boundary",
        "disclaimer_zh": "概念建议图层。不是官方红线、法定控制、现状测绘或工程结论；官方边界与权属资料到位后必须整体重算。",
        "disclaimer_en": "Concept-suggestion layer. Not an official redline, statutory control, surveyed existing condition or engineering conclusion; recalculate in full once official boundary and ownership data are released.",
        "layer": "ROAD_CENTERLINE",
        "road_class": "branch",
        "name_zh": "原点社区支路",
        "name_en": "Origin Community branch",
        "network_role": "branch",
        "design_intent_zh": "社区南北支路，限速并优先步行。",
        "design_intent_en": "North-south community branch, speed-limited and pedestrian-priority.",
        "length_m_declared": 1083.3,
        "id": "ROAD-015"
      },
      "geometry": {
        "type": "LineString",
        "coordinates": [
          [
            116.3484,
            39.9836
          ],
          [
            116.3484,
            39.9934
          ]
        ]
      }
    },
    {
      "type": "Feature",
      "id": "ROAD-016",
      "properties": {
        "source_type": "agent_generated_design",
        "confidence": "medium",
        "geometry_role": "design_proposal",
        "boundary_basis": "provisional_boundary",
        "official_basis": false,
        "recalculation_status": "pending_official_boundary",
        "disclaimer_zh": "概念建议图层。不是官方红线、法定控制、现状测绘或工程结论；官方边界与权属资料到位后必须整体重算。",
        "disclaimer_en": "Concept-suggestion layer. Not an official redline, statutory control, surveyed existing condition or engineering conclusion; recalculate in full once official boundary and ownership data are released.",
        "layer": "ROAD_CENTERLINE",
        "road_class": "branch",
        "name_zh": "大钟寺支路",
        "name_en": "Dazhongsi branch",
        "network_role": "branch",
        "design_intent_zh": "产业区南北支路。",
        "design_intent_en": "North-south branch of the industrial cluster.",
        "length_m_declared": 1636.0,
        "id": "ROAD-016"
      },
      "geometry": {
        "type": "LineString",
        "coordinates": [
          [
            116.3508,
            39.9402
          ],
          [
            116.3508,
            39.955
          ]
        ]
      }
    },
    {
      "type": "Feature",
      "id": "ROAD-017",
      "properties": {
        "source_type": "agent_generated_design",
        "confidence": "medium",
        "geometry_role": "design_proposal",
        "boundary_basis": "provisional_boundary",
        "official_basis": false,
        "recalculation_status": "pending_official_boundary",
        "disclaimer_zh": "概念建议图层。不是官方红线、法定控制、现状测绘或工程结论；官方边界与权属资料到位后必须整体重算。",
        "disclaimer_en": "Concept-suggestion layer. Not an official redline, statutory control, surveyed existing condition or engineering conclusion; recalculate in full once official boundary and ownership data are released.",
        "layer": "ROAD_CENTERLINE",
        "road_class": "local_access",
        "name_zh": "众智园装卸出入道",
        "name_en": "Zhongzhi loading access",
        "network_role": "loading_access",
        "design_intent_zh": "分时装卸出入道，避开公共活动时段。",
        "design_intent_en": "Time-shared loading access avoiding public-activity windows.",
        "length_m_declared": 238.8,
        "id": "ROAD-017"
      },
      "geometry": {
        "type": "LineString",
        "coordinates": [
          [
            116.3548,
            40.018
          ],
          [
            116.352,
            40.018
          ]
        ]
      }
    },
    {
      "type": "Feature",
      "id": "ROAD-018",
      "properties": {
        "source_type": "agent_generated_design",
        "confidence": "medium",
        "geometry_role": "design_proposal",
        "boundary_basis": "provisional_boundary",
        "official_basis": false,
        "recalculation_status": "pending_official_boundary",
        "disclaimer_zh": "概念建议图层。不是官方红线、法定控制、现状测绘或工程结论；官方边界与权属资料到位后必须整体重算。",
        "disclaimer_en": "Concept-suggestion layer. Not an official redline, statutory control, surveyed existing condition or engineering conclusion; recalculate in full once official boundary and ownership data are released.",
        "layer": "ROAD_CENTERLINE",
        "road_class": "local_access",
        "name_zh": "大钟寺装卸出入道",
        "name_en": "Dazhongsi loading access",
        "network_role": "loading_access",
        "design_intent_zh": "产业装卸出入道。",
        "design_intent_en": "Industrial loading access.",
        "length_m_declared": 290.0,
        "id": "ROAD-018"
      },
      "geometry": {
        "type": "LineString",
        "coordinates": [
          [
            116.341,
            39.947
          ],
          [
            116.3444,
            39.947
          ]
        ]
      }
    },
    {
      "type": "Feature",
      "id": "ROAD-019",
      "properties": {
        "source_type": "agent_generated_design",
        "confidence": "medium",
        "geometry_role": "design_proposal",
        "boundary_basis": "provisional_boundary",
        "official_basis": false,
        "recalculation_status": "pending_official_boundary",
        "disclaimer_zh": "概念建议图层。不是官方红线、法定控制、现状测绘或工程结论；官方边界与权属资料到位后必须整体重算。",
        "disclaimer_en": "Concept-suggestion layer. Not an official redline, statutory control, surveyed existing condition or engineering conclusion; recalculate in full once official boundary and ownership data are released.",
        "layer": "ROAD_CENTERLINE",
        "road_class": "greenway",
        "name_zh": "中关村翼联络绿道",
        "name_en": "Zhongguancun wing greenway",
        "network_role": "wing_link",
        "design_intent_zh": "西翼联络绿道，衔接科技服务资源。",
        "design_intent_en": "Western wing greenway connecting technology-service resources.",
        "length_m_declared": 4145.6,
        "id": "ROAD-019"
      },
      "geometry": {
        "type": "LineString",
        "coordinates": [
          [
            116.341,
            39.9935
          ],
          [
            116.341,
            39.97
          ],
          [
            116.3414,
            39.956
          ]
        ]
      }
    },
    {
      "type": "Feature",
      "id": "ROAD-020",
      "properties": {
        "source_type": "agent_generated_design",
        "confidence": "medium",
        "geometry_role": "design_proposal",
        "boundary_basis": "provisional_boundary",
        "official_basis": false,
        "recalculation_status": "pending_official_boundary",
        "disclaimer_zh": "概念建议图层。不是官方红线、法定控制、现状测绘或工程结论；官方边界与权属资料到位后必须整体重算。",
        "disclaimer_en": "Concept-suggestion layer. Not an official redline, statutory control, surveyed existing condition or engineering conclusion; recalculate in full once official boundary and ownership data are released.",
        "layer": "ROAD_CENTERLINE",
        "road_class": "greenway",
        "name_zh": "小月河翼联络绿道",
        "name_en": "Xiaoyuehe wing greenway",
        "network_role": "wing_link",
        "design_intent_zh": "东翼联络绿道，沿河布置验证点。",
        "design_intent_en": "Eastern wing greenway with validation points along the river.",
        "length_m_declared": 4145.6,
        "id": "ROAD-020"
      },
      "geometry": {
        "type": "LineString",
        "coordinates": [
          [
            116.3548,
            39.9935
          ],
          [
            116.3548,
            39.97
          ],
          [
            116.3544,
            39.956
          ]
        ]
      }
    }
  ],
  "schema_version": "0.1.0",
  "crs_note": "WGS84 lon/lat; lengths and areas recomputed in a local planar approximation.",
  "boundary_basis": "provisional_boundary",
  "official_basis": false
}
